<?xml version='1.0' encoding='utf8'?>
<osm version="0.6" generator="Akadem Maps synthetic MIT fixture"><node id="1" lon="30.35" lat="50.45" /><node id="2" lon="30.356" lat="50.45" /><node id="3" lon="30.362000000000002" lat="50.45" /><node id="4" lon="30.35" lat="50.454" /><node id="5" lon="30.356" lat="50.454" /><node id="6" lon="30.362000000000002" lat="50.454" /><node id="7" lon="30.35" lat="50.458000000000006" /><node id="8" lon="30.356" lat="50.458000000000006" /><node id="9" lon="30.362000000000002" lat="50.458000000000006" /><way id="101"><nd ref="1" /><nd ref="2" /><nd ref="3" /><tag k="highway" v="residential" /><tag k="lanes" v="2" /><tag k="maxspeed" v="30" /><tag k="name" v="Synthetic street 101" /></way><way id="102"><nd ref="4" /><nd ref="5" /><nd ref="6" /><tag k="highway" v="residential" /><tag k="lanes" v="2" /><tag k="maxspeed" v="30" /><tag k="name" v="Synthetic street 102" /></way><way id="103"><nd ref="7" /><nd ref="8" /><nd ref="9" /><tag k="highway" v="residential" /><tag k="lanes" v="2" /><tag k="maxspeed" v="30" /><tag k="name" v="Synthetic street 103" /></way><way id="104"><nd ref="1" /><nd ref="4" /><nd ref="7" /><tag k="highway" v="residential" /><tag k="lanes" v="2" /><tag k="maxspeed" v="30" /><tag k="name" v="Synthetic street 104" /></way><way id="105"><nd ref="2" /><nd ref="5" /><nd ref="8" /><tag k="highway" v="residential" /><tag k="lanes" v="2" /><tag k="maxspeed" v="30" /><tag k="name" v="Synthetic street 105" /></way><way id="106"><nd ref="3" /><nd ref="6" /><nd ref="9" /><tag k="highway" v="residential" /><tag k="lanes" v="2" /><tag k="maxspeed" v="30" /><tag k="name" v="Synthetic street 106" /></way></osm>