{
  "type": "FeatureCollection",
  "supplementary_footprints": [
    {
      "geometry": {
        "type": "Polygon",
        "coordinates": [
          [
            [
              31.570396015191147,
              46.77266617993185
            ],
            [
              31.570394525375114,
              46.77270375467907
            ],
            [
              31.57031824376229,
              46.772702335936124
            ],
            [
              31.570319737560453,
              46.772664757605604
            ],
            [
              31.570396015191147,
              46.77266617993185
            ]
          ]
        ]
      },
      "properties": {
        "source": "microsoft",
        "source_id": "microsoft-auto-31.570357-46.772684-0.000",
        "release": "2026-08-13",
        "license": "CDLA-Permissive-2.0",
        "height": null,
        "height_provenance": null
      }
    },
    {
      "geometry": {
        "type": "Polygon",
        "coordinates": [
          [
            [
              31.57044017880559,
              46.77259705149868
            ],
            [
              31.57043322543727,
              46.772618013970835
            ],
            [
              31.570356708395806,
              46.77260610814446
            ],
            [
              31.57036366176413,
              46.772585145667676
            ],
            [
              31.57044017880559,
              46.77259705149868
            ]
          ]
        ]
      },
      "properties": {
        "source": "microsoft",
        "source_id": "microsoft-auto-31.570398-46.772602-0.000",
        "release": "2026-08-13",
        "license": "CDLA-Permissive-2.0",
        "height": null,
        "height_provenance": null
      }
    },
    {
      "geometry": {
        "type": "Polygon",
        "coordinates": [
          [
            [
              31.586923099343338,
              46.76007100452551
            ],
            [
              31.586966980113914,
              46.76013137101896
            ],
            [
              31.586913248865102,
              46.76014970071432
            ],
            [
              31.586869368094565,
              46.76008933424141
            ],
            [
              31.586923099343338,
              46.76007100452551
            ]
          ]
        ]
      },
      "properties": {
        "source": "microsoft",
        "source_id": "microsoft-auto-31.586918-46.760110-0.000",
        "release": "2026-08-13",
        "license": "CDLA-Permissive-2.0",
        "height": null,
        "height_provenance": null
      }
    }
  ],
  "features": [
    {
      "type": "Feature",
      "properties": {
        "role": "settlement",
        "name": "Рівне",
        "source": "OpenStreetMap / Geofabrik 2026-09-18",
        "osm_ways": [
          "631613565",
          "99359566",
          "99359568",
          "99359569",
          "99359570",
          "99359572",
          "99359573",
          "99359574",
          "99359575",
          "99359576",
          "99359578",
          "99359580",
          "99359581",
          "99359582",
          "99364448",
          "99364449",
          "99364454",
          "99364456",
          "99364457",
          "99364460",
          "99364462",
          "99364468",
          "99364470",
          "99364472",
          "99364474",
          "99364476",
          "99364480",
          "99364481",
          "99364504",
          "99364516",
          "99364523",
          "99364528",
          "99364532",
          "99465079",
          "99465080",
          "99465081",
          "99465084",
          "99465085",
          "99465086",
          "99465087",
          "99465088",
          "815551377",
          "815551378",
          "815551379",
          "815551381",
          "815551382",
          "815551384",
          "815551385"
        ],
        "provenance": "derived from residential/place outline + OSM and Microsoft footprints within 180 m; 5 m connectors",
        "note": "Working outline of village development, not an administrative boundary."
      },
      "geometry": {
        "type": "Polygon",
        "coordinates": [
          [
            [
              31.570388325840025,
              46.7725694311438
            ],
            [
              31.570388317966525,
              46.77256943812276
            ],
            [
              31.570384635164828,
              46.772573056116165
            ],
            [
              31.57038462832487,
              46.77257306359176
            ],
            [
              31.57038147940455,
              46.77257691217721
            ],
            [
              31.570381473664,
              46.77257692007741
            ],
            [
              31.570378888950945,
              46.77258096219097
            ],
            [
              31.570378884365095,
              46.77258097043973
            ],
            [
              31.57037688875161,
              46.77258516715365
            ],
            [
              31.570376885364627,
              46.77258517567154
            ],
            [
              31.570376292262665,
              46.77258701868411
            ],
            [
              31.570363690690087,
              46.77258505791188
            ],
            [
              31.570363678042504,
              46.77258505638742
            ],
            [
              31.570363665238425,
              46.77258505572128
            ],
            [
              31.570363652400935,
              46.772585055919876
            ],
            [
              31.57036363965347,
              46.772585056981306
            ],
            [
              31.570363627118574,
              46.77258505889533
            ],
            [
              31.57036361491675,
              46.772585061643596
            ],
            [
              31.570363603165312,
              46.772585065199635
            ],
            [
              31.570363591977234,
              46.77258506952929
            ],
            [
              31.570363581460082,
              46.77258507459092
            ],
            [
              31.570363571714957,
              46.772585080335894
            ],
            [
              31.57036356283555,
              46.772585086708936
            ],
            [
              31.570363554907228,
              46.7725850936488
            ],
            [
              31.570363548006213,
              46.772585101088765
            ],
            [
              31.57036354219885,
              46.77258510895733
            ],
            [
              31.570363537540974,
              46.7725851171788
            ],
            [
              31.570363534077355,
              46.77258512567416
            ],
            [
              31.570356580708985,
              46.772606088150944
            ],
            [
              31.570356578470122,
              46.77260609685371
            ],
            [
              31.57035657748469,
              46.77260610566543
            ],
            [
              31.570356577762187,
              46.772606114501066
            ],
            [
              31.570356579299947,
              46.772606123275374
            ],
            [
              31.570356582083125,
              46.77260613190371
            ],
            [
              31.570356586084873,
              46.77260614030283
            ],
            [
              31.57035659126658,
              46.77260614839171
            ],
            [
              31.57035659757827,
              46.7726061560923
            ],
            [
              31.57035660495905,
              46.772606163330344
            ],
            [
              31.570356613337704,
              46.772606170036
            ],
            [
              31.57035662263341,
              46.77260617614456
            ],
            [
              31.570356632756486,
              46.77260618159711
            ],
            [
              31.570356643609276,
              46.772606186341044
            ],
            [
              31.57035665508708,
              46.77260619033059
            ],
            [
              31.570356667079167,
              46.77260619352727
            ],
            [
              31.570356679469846,
              46.77260619590023
            ],
            [
              31.570377150725314,
              46.77260938117283
            ],
            [
              31.5703779451322,
              46.77261132851271
            ],
            [
              31.57037794920373,
              46.77261133688792
            ],
            [
              31.570380281583013,
              46.77261545081354
            ],
            [
              31.570380286829764,
              46.77261545887421
            ],
            [
              31.570383194877408,
              46.772619395918994
            ],
            [
              31.57038320124884,
              46.77261940358752
            ],
            [
              31.570384877231056,
              46.77262120883788
            ],
            [
              31.570375229209056,
              46.77262342290672
            ],
            [
              31.57037522316408,
              46.772623424408216
            ],
            [
              31.57036923544461,
              46.772625026893934
            ],
            [
              31.570369223712486,
              46.77262503049876
            ],
            [
              31.570363493438258,
              46.77262702850301
            ],
            [
              31.570363482276896,
              46.77262703288055
            ],
            [
              31.57035806463349,
              46.7726294071615
            ],
            [
              31.57035805415038,
              46.77262941226964
            ],
            [
              31.5703530013126,
              46.772632139961694
            ],
            [
              31.570352991608704,
              46.772632145751196
            ],
            [
              31.570348352238096,
              46.77263520058526
            ],
            [
              31.57034834340686,
              46.77263520700038
            ],
            [
              31.570344162183094,
              46.77263855955679
            ],
            [
              31.570344154309574,
              46.772638566535754
            ],
            [
              31.57034047150014,
              46.77264218452761
            ],
            [
              31.570340464660163,
              46.77264219200319
            ],
            [
              31.570337315732573,
              46.772646040587304
            ],
            [
              31.57033730999201,
              46.77264604848751
            ],
            [
              31.570334725272247,
              46.77265009059994
            ],
            [
              31.570334720686382,
              46.77265009884869
            ],
            [
              31.570332725066812,
              46.77265429556175
            ],
            [
              31.570332721679808,
              46.77265430407962
            ],
            [
              31.570331334379457,
              46.772658614976685
            ],
            [
              31.570331332223937,
              46.77265862368163
            ],
            [
              31.570330566603403,
              46.77266300724643
            ],
            [
              31.570330565700125,
              46.772663016054615
            ],
            [
              31.570330508388412,
              46.77266486843793
            ],
            [
              31.570319741113472,
              46.77266466766068
            ],
            [
              31.570319728266067,
              46.772664667854436
            ],
            [
              31.570319715508152,
              46.77266466891237
            ],
            [
              31.570319702962568,
              46.77266467082429
            ],
            [
              31.570319690750104,
              46.77266467357177
            ],
            [
              31.570319678988355,
              46.772664677128354
            ],
            [
              31.570319667790564,
              46.77266468145982
            ],
            [
              31.570319657264548,
              46.77266468652447
            ],
            [
              31.57031964751165,
              46.772664692273494
            ],
            [
              31.570319638625794,
              46.772664698651575
            ],
            [
              31.57031963069252,
              46.772664705597286
            ],
            [
              31.57031962378822,
              46.77266471304376
            ],
            [
              31.57031961797937,
              46.772664720919295
            ],
            [
              31.570319613321896,
              46.772664729148076
            ],
            [
              31.57031960986065,
              46.77266473765084
            ],
            [
              31.57031960762896,
              46.77266474634575
            ],
            [
              31.570319606648297,
              46.772664755149066
            ],
            [
              31.570318112850043,
              46.77270233347959
            ],
            [
              31.57031811313011,
              46.772702342308875
            ],
            [
              31.570318114668613,
              46.772702351076774
            ],
            [
              31.570318117450746,
              46.772702359698805
            ],
            [
              31.570318121449702,
              46.77270236809191
            ],
            [
              31.57031812662695,
              46.772702376175275
            ],
            [
              31.57031813293263,
              46.77270238387097
            ],
            [
              31.570318140305982,
              46.77270239110489
            ],
            [
              31.570318148675984,
              46.77270239780734
            ],
            [
              31.570318157962,
              46.77270240391376
            ],
            [
              31.570318168074568,
              46.77270240936532
            ],
            [
              31.570318178916278,
              46.77270241410949
            ],
            [
              31.57031819038268,
              46.77270241810057
            ],
            [
              31.570318202363314,
              46.77270242130014
            ],
            [
              31.57031821474277,
              46.772702423677345
            ],
            [
              31.570318227401778,
              46.77270242520929
            ],
            [
              31.570318240218402,
              46.772702425881235
            ],
            [
              31.570358667996675,
              46.77270317779387
            ],
            [
              31.5703610904275,
              46.772704341791474
            ],
            [
              31.570361101308045,
              46.77270434649095
            ],
            [
              31.570366702838573,
              46.77270650999287
            ],
            [
              31.570366714337162,
              46.772706513936974
            ],
            [
              31.57037259754426,
              46.772708289793464
            ],
            [
              31.57037260955015,
              46.77270829294423
            ],
            [
              31.570378717775228,
              46.7727096640528
            ],
            [
              31.570378730172802,
              46.77270966637987
            ],
            [
              31.570385004590175,
              46.77271061953596
            ],
            [
              31.570385017260033,
              46.77271062101692
            ],
            [
              31.5703913974435,
              46.77271114704111
            ],
            [
              31.570391410263632,
              46.772711147661695
            ],
            [
              31.57039783476839,
              46.77271124148804
            ],
            [
              31.57039784761532,
              46.77271124124228
            ],
            [
              31.570404254569716,
              46.77271090196718
            ],
            [
              31.570404267319734,
              46.77271090085747
            ],
            [
              31.57041059502114,
              46.772710131748354
            ],
            [
              31.570410607551445,
              46.77271012978533
            ],
            [
              31.570416795060503,
              46.772708938249146
            ],
            [
              31.570416801205436,
              46.772708936953244
            ],
            [
              31.571515739955284,
              46.772456741393675
            ],
            [
              31.571777875784637,
              46.77299592850695
            ],
            [
              31.571777880307945,
              46.772995936516296
            ],
            [
              31.57177788592243,
              46.77299594419273
            ],
            [
              31.571777892576907,
              46.77299595146629
            ],
            [
              31.571777900210712,
              46.77299595827066
            ],
            [
              31.57177790875424,
              46.772995964543796
            ],
            [
              31.571777918129612,
              46.77299597022853
            ],
            [
              31.571777928251365,
              46.772995975273005
            ],
            [
              31.57177793902721,
              46.77299597963127
            ],
            [
              31.571777950358918,
              46.77299598326357
            ],
            [
              31.571777962143177,
              46.77299598613679
            ],
            [
              31.57177797427256,
              46.77299598822476
            ],
            [
              31.571777986636484,
              46.7729959895084
            ],
            [
              31.57177799912224,
              46.77299598997606
            ],
            [
              31.573387381379273,
              46.77300338989463
            ],
            [
              31.573744964305597,
              46.77307298657154
            ],
            [
              31.57374497561406,
              46.77307298840445
            ],
            [
              31.5858874756331,
              46.77465338840722
            ],
            [
              31.585887488478136,
              46.774653389629414
            ],
            [
              31.585887501436133,
              46.77465338997289
            ],
            [
              31.58588751438005,
              46.77465338943427
            ],
            [
              31.58588752718299,
              46.77465338801884
            ],
            [
              31.585887539719423,
              46.774653385740464
            ],
            [
              31.58588755186645,
              46.774653382621494
            ],
            [
              31.585887563504976,
              46.77465337869249
            ],
            [
              31.585887574520896,
              46.77465337399201
            ],
            [
              31.58588758480622,
              46.774653368566085
            ],
            [
              31.5858875942601,
              46.77465336246796
            ],
            [
              31.585887602789853,
              46.77465335575739
            ],
            [
              31.585887610311858,
              46.774653348500166
            ],
            [
              31.585887616752366,
              46.774653340767465
            ],
            [
              31.585887622048233,
              46.77465333263507
            ],
            [
              31.585887626147535,
              46.77465332418272
            ],
            [
              31.58588762901009,
              46.77465331549328
            ],
            [
              31.58588763060783,
              46.77465330665194
            ],
            [
              31.585930930606867,
              46.774252006651885
            ],
            [
              31.585930930957993,
              46.77425199905322
            ],
            [
              31.58593093037421,
              46.77425199146131
            ],
            [
              31.585930928859685,
              46.774251983930384
            ],
            [
              31.58555852885641,
              46.77284238393077
            ],
            [
              31.58555852682012,
              46.772842377550425
            ],
            [
              31.58463723548134,
              46.770385500664446
            ],
            [
              31.585102026332876,
              46.76921532368959
            ],
            [
              31.58510202927479,
              46.76921531435895
            ],
            [
              31.585102030761316,
              46.76921530486668
            ],
            [
              31.58510203077572,
              46.7692152953196
            ],
            [
              31.58510202931784,
              46.769215285825226
            ],
            [
              31.585102026404083,
              46.76921527649042
            ],
            [
              31.583677757203226,
              46.76559965470335
            ],
            [
              31.586390847226063,
              46.764878783922576
            ],
            [
              31.586390857283185,
              46.76487878091168
            ],
            [
              31.590565550755894,
              46.76348308309369
            ],
            [
              31.594771243918135,
              46.76245418476626
            ],
            [
              31.594771244620446,
              46.76245418459287
            ],
            [
              31.59949194462695,
              46.7612781845911
            ],
            [
              31.59949195615685,
              46.76127818128274
            ],
            [
              31.59949196717538,
              46.76127817723422
            ],
            [
              31.599491977582186,
              46.761278172482356
            ],
            [
              31.59949198728251,
              46.761278167070465
            ],
            [
              31.599491996188018,
              46.7612781610478
            ],
            [
              31.599492004217613,
              46.761278154469224
            ],
            [
              31.599492011298178,
              46.76127814739465
            ],
            [
              31.599492017365232,
              46.76127813988848
            ],
            [
              31.59949202236353,
              46.761278132019065
            ],
            [
              31.599492026247553,
              46.761278123858084
            ],
            [
              31.599492028981942,
              46.761278115479854
            ],
            [
              31.59949203054178,
              46.761278106960646
            ],
            [
              31.599492030912874,
              46.761278098378064
            ],
            [
              31.599459830909904,
              46.76005069837808
            ],
            [
              31.59945983002718,
              46.760050689444796
            ],
            [
              31.59945982785687,
              46.76005068061604
            ],
            [
              31.599459824420478,
              46.76005067197923
            ],
            [
              31.59945981975202,
              46.76005066361988
            ],
            [
              31.599459813897735,
              46.76005065562078
            ],
            [
              31.59945980691559,
              46.76005064806116
            ],
            [
              31.59945979887472,
              46.76005064101584
            ],
            [
              31.599459789854755,
              46.76005063455464
            ],
            [
              31.59945977994502,
              46.76005062874146
            ],
            [
              31.599459769243637,
              46.76005062363392
            ],
            [
              31.599459757856568,
              46.7600506192826
            ],
            [
              31.59945974589659,
              46.76005061573057
            ],
            [
              31.59945973348212,
              46.760050613013014
            ],
            [
              31.5994597207361,
              46.76005061115683
            ],
            [
              31.596659523799058,
              46.7597419114946
            ],
            [
              31.59123452683908,
              46.75896121193216
            ],
            [
              31.59123451395977,
              46.75896121053429
            ],
            [
              31.591234500942008,
              46.7589612100237
            ],
            [
              31.5912344879149,
              46.758961210405495
            ],
            [
              31.591234475007656,
              46.75896121167588
            ],
            [
              31.58813927501256,
              46.75937481167524
            ],
            [
              31.58813926232544,
              46.75937481382693
            ],
            [
              31.58813925001363,
              46.759374816837045
            ],
            [
              31.58813923819975,
              46.759374820675625
            ],
            [
              31.58813922700151,
              46.75937482530438
            ],
            [
              31.58813921653044,
              46.7593748306772
            ],
            [
              31.58813920689086,
              46.75937483674061
            ],
            [
              31.588139198178794,
              46.75937484343416
            ],
            [
              31.58813919048103,
              46.75937485069121
            ],
            [
              31.58813918387424,
              46.75937485843945
            ],
            [
              31.588139178424253,
              46.7593748666017
            ],
            [
              31.58813917418535,
              46.75937487509665
            ],
            [
              31.588139171199757,
              46.759374883839676
            ],
            [
              31.58813916949721,
              46.759374892743686
            ],
            [
              31.58813916909469,
              46.75937490171997
            ],
            [
              31.588171568415554,
              46.760539477410674
            ],
            [
              31.588091104629115,
              46.76063863278452
            ],
            [
              31.587785451654536,
              46.76074891581715
            ],
            [
              31.587474313622284,
              46.76080770410865
            ],
            [
              31.587377858472934,
              46.76077461949263
            ],
            [
              31.587377847119924,
              46.76077461605011
            ],
            [
              31.587377835343677,
              46.760774613361654
            ],
            [
              31.58737782324997,
              46.76077461145141
            ],
            [
              31.587377810947423,
              46.76077461033652
            ],
            [
              31.58737779854655,
              46.76077461002699
            ],
            [
              31.58737778615873,
              46.76077461052563
            ],
            [
              31.587377773895234,
              46.76077461182793
            ],
            [
              31.587377761866218,
              46.76077461392222
            ],
            [
              31.587268762103093,
              46.76079741868475
            ],
            [
              31.586976001676828,
              46.76013657172805
            ],
            [
              31.586975999654875,
              46.76013656753599
            ],
            [
              31.58697382925648,
              46.76013241207456
            ],
            [
              31.586973824327508,
              46.76013240392003
            ],
            [
              31.586971071694176,
              46.76012841466501
            ],
            [
              31.586971065625875,
              46.76012840688175
            ],
            [
              31.58696775726707,
              46.7601246222518
            ],
            [
              31.58696775011788,
              46.76012461491479
            ],
            [
              31.586963917894984,
              46.76012107135794
            ],
            [
              31.586963909733754,
              46.76012106453782
            ],
            [
              31.586959590553217,
              46.760117796180396
            ],
            [
              31.586959581458537,
              46.76011778994283
            ],
            [
              31.586955335962127,
              46.76011515090432
            ],
            [
              31.586923216472798,
              46.76007096431517
            ],
            [
              31.586923210184636,
              46.760070956631026
            ],
            [
              31.586923202832434,
              46.760070949406625
            ],
            [
              31.58692319448677,
              46.76007094271135
            ],
            [
              31.586923185227754,
              46.76007093660948
            ],
            [
              31.586923175144275,
              46.76007093115959
            ],
            [
              31.586923164333133,
              46.760070926414
            ],
            [
              31.586923152898102,
              46.76007092241822
            ],
            [
              31.58692314094896,
              46.76007091921067
            ],
            [
              31.586923128600425,
              46.760070916822116
            ],
            [
              31.58692311597102,
              46.760070915275485
            ],
            [
              31.586923103182006,
              46.76007091458564
            ],
            [
              31.586923090356134,
              46.76007091475917
            ],
            [
              31.586923077616543,
              46.76007091579444
            ],
            [
              31.586923065085514,
              46.7600709176815
            ],
            [
              31.586923052883353,
              46.76007092040225
            ],
            [
              31.586923041127196,
              46.76007092393055
            ],
            [
              31.58686930987849,
              46.76008925364641
            ],
            [
              31.586869298646214,
              46.76008925796343
            ],
            [
              31.586869288084916,
              46.76008926301739
            ],
            [
              31.586869278296625,
              46.76008926875948
            ],
            [
              31.586869269375907,
              46.76008927513422
            ],
            [
              31.58686926140896,
              46.760089282080024
            ],
            [
              31.586869254472752,
              46.76008928952977
            ],
            [
              31.58686924863429,
              46.76008929741152
            ],
            [
              31.586869243949987,
              46.76008930564908
            ],
            [
              31.586869240465106,
              46.76008931416288
            ],
            [
              31.58686923821331,
              46.76008932287069
            ],
            [
              31.58686923721635,
              46.76008933168834
            ],
            [
              31.586869237483867,
              46.76008934053067
            ],
            [
              31.58686923901327,
              46.760089349312224
            ],
            [
              31.586869241789792,
              46.760089357948175
            ],
            [
              31.58686924578659,
              46.76008936635508
            ],
            [
              31.58686925096507,
              46.760089374451724
            ],
            [
              31.586883845343216,
              46.7601094518536
            ],
            [
              31.58688227479819,
              46.760109963651594
            ],
            [
              31.586882263472482,
              46.760109967821855
            ],
            [
              31.586876756318926,
              46.760112241391035
            ],
            [
              31.586876745642556,
              46.7601122463041
            ],
            [
              31.586871589282115,
              46.76011487988403
            ],
            [
              31.586871579357897,
              46.760114885492584
            ],
            [
              31.586866823449085,
              46.7601178537205
            ],
            [
              31.58686681437259,
              46.760117859970556
            ],
            [
              31.58686250471741,
              46.76012113426084
            ],
            [
              31.58686249657605,
              46.76012114109217
            ],
            [
              31.58685867467884,
              46.760124689911684
            ],
            [
              31.586858667551024,
              46.760124697258526
            ],
            [
              31.586855370218778,
              46.76012848643025
            ],
            [
              31.58685536417315,
              46.76012849422183
            ],
            [
              31.58685262316106,
              46.760132487254
            ],
            [
              31.586852618255847,
              46.7601324954153
            ],
            [
              31.58685045996145,
              46.76013665385288
            ],
            [
              31.58685045624389,
              46.7601366623053
            ],
            [
              31.586848901452864,
              46.76014094610031
            ],
            [
              31.586848898958756,
              46.760140954762434
            ],
            [
              31.586847962644715,
              46.760145322659596
            ],
            [
              31.586847961398078,
              46.76014533144802
            ],
            [
              31.586847652578392,
              46.76014974138212
            ],
            [
              31.586847652591242,
              46.76014975021218
            ],
            [
              31.586847974240165,
              46.76015415971316
            ],
            [
              31.586847975512367,
              46.76015416849985
            ],
            [
              31.5868489245324,
              46.760158535101795
            ],
            [
              31.586848927051705,
              46.76015854376046
            ],
            [
              31.586850494303405,
              46.76016282541059
            ],
            [
              31.586850496023608,
              46.760162829665795
            ],
            [
              31.587143293175714,
              46.76082376300329
            ],
            [
              31.587143295197706,
              46.76082376719537
            ],
            [
              31.587145260248292,
              46.76082752942465
            ],
            [
              31.585484079203535,
              46.76135520748031
            ],
            [
              31.584937082910113,
              46.76130741654122
            ],
            [
              31.58396611495142,
              46.76008375692344
            ],
            [
              31.583966108681953,
              46.76008374982285
            ],
            [
              31.583966101486478,
              46.760083743149785
            ],
            [
              31.58396609342631,
              46.7600837369611
            ],
            [
              31.58396608457011,
              46.76008373130953
            ],
            [
              31.583966074993352,
              46.760083726243224
            ],
            [
              31.583966064777627,
              46.76008372180534
            ],
            [
              31.58396605400997,
              46.76008371803372
            ],
            [
              31.583966042782134,
              46.760083714960466
            ],
            [
              31.583536765110487,
              46.759981720265685
            ],
            [
              31.5830076009997,
              46.75968164061808
            ],
            [
              31.582163712666734,
              46.75870195416466
            ],
            [
              31.58216370649937,
              46.75870194766193
            ],
            [
              31.582163699539457,
              46.758701941548715
            ],
            [
              31.582163691838794,
              46.75870193587046
            ],
            [
              31.58131609183879,
              46.75812863587115
            ],
            [
              31.58131608291247,
              46.7581286303634
            ],
            [
              31.581316073290083,
              46.75812862544026
            ],
            [
              31.58131606305242,
              46.758128621143065
            ],
            [
              31.581316052285413,
              46.7581286175079
            ],
            [
              31.58131604107946,
              46.75812861456525
            ],
            [
              31.58131602952864,
              46.758128612339846
            ],
            [
              31.58025382953026,
              46.75795961234015
            ],
            [
              31.58025381385434,
              46.757959610526754
            ],
            [
              31.580253797974187,
              46.75795961003233
            ],
            [
              31.57956719898761,
              46.75796691002155
            ],
            [
              31.57866601827809,
              46.757966910021636
            ],
            [
              31.578140243420705,
              46.7578640149421
            ],
            [
              31.57752875067277,
              46.75768761703414
            ],
            [
              31.577528733967892,
              46.75768761310266
            ],
            [
              31.57629493396972,
              46.75745981310304
            ],
            [
              31.576294919840343,
              46.757459811060755
            ],
            [
              31.57629490546966,
              46.75745981010016
            ],
            [
              31.576037405470093,
              46.757452410100186
            ],
            [
              31.57603739336752,
              46.757452410137134
            ],
            [
              31.576037381321623,
              46.757452410942015
            ],
            [
              31.576037369435344,
              46.75745241250789
            ],
            [
              31.57545796943623,
              46.757548012507755
            ],
            [
              31.57545795775588,
              46.75754801483413
            ],
            [
              31.57545794644,
              46.7575480178953
            ],
            [
              31.57545793558622,
              46.757548021664846
            ],
            [
              31.575457925288177,
              46.75754802611026
            ],
            [
              31.57545791563473,
              46.757548031193146
            ],
            [
              31.575457906709158,
              46.75754803686967
            ],
            [
              31.57545789858847,
              46.75754804309089
            ],
            [
              31.57545789134273,
              46.7575480498031
            ],
            [
              31.575457885034456,
              46.75754805694837
            ],
            [
              31.57514518503388,
              46.75794245694805
            ],
            [
              31.575145179631644,
              46.75794246460218
            ],
            [
              31.57514517530536,
              46.75794247257273
            ],
            [
              31.5751451720937,
              46.75794248078844
            ],
            [
              31.57514517002537,
              46.757942489175875
            ],
            [
              31.575145169118862,
              46.757942497660075
            ],
            [
              31.57514516938228,
              46.757942506165186
            ],
            [
              31.57514517081326,
              46.75794251461518
            ],
            [
              31.57514517339903,
              46.75794252293455
            ],
            [
              31.575145177116454,
              46.75794253104889
            ],
            [
              31.575145181932324,
              46.75794253888569
            ],
            [
              31.57567502821143,
              46.75870236185117
            ],
            [
              31.574615252574475,
              46.75909911529191
            ],
            [
              31.573592369413614,
              46.75926801251137
            ],
            [
              31.57359235715254,
              46.75926801497635
            ],
            [
              31.57359234529938,
              46.75926801825075
            ],
            [
              31.57359233396699,
              46.75926802230346
            ],
            [
              31.573592323263245,
              46.75926802709583
            ],
            [
              31.573592313290057,
              46.75926803258229
            ],
            [
              31.573592304142373,
              46.75926803871057
            ],
            [
              31.573592295907282,
              46.75926804542235
            ],
            [
              31.57291519590682,
              46.759877945421735
            ],
            [
              31.57291518854447,
              46.75987795278444
            ],
            [
              31.572915182280816,
              46.759877960612585
            ],
            [
              31.572915177177595,
              46.75987796882899
            ],
            [
              31.572915173285125,
              46.75987797735267
            ],
            [
              31.572389476904515,
              46.76126706778056
            ],
            [
              31.571874483464605,
              46.761957958977746
            ],
            [
              31.571874476705112,
              46.76195796971367
            ],
            [
              31.571209276702607,
              46.76323676971294
            ],
            [
              31.57120927251601,
              46.76323677946917
            ],
            [
              31.57094107251427,
              46.76402317946885
            ],
            [
              31.57094107046113,
              46.764023186872066
            ],
            [
              31.570941069316774,
              46.76402319436741
            ],
            [
              31.570844469548277,
              46.7650814918032
            ],
            [
              31.570790371003124,
              46.76539048348939
            ],
            [
              31.570597773080202,
              46.76591187786303
            ],
            [
              31.570597772050448,
              46.765911880865666
            ],
            [
              31.570474472049572,
              46.76630118086554
            ],
            [
              31.570474469768175,
              46.76630119061835
            ],
            [
              31.57000836976092,
              46.76935599061775
            ],
            [
              31.57000836904739,
              46.76935600020169
            ],
            [
              31.570008369823444,
              46.76935600978337
            ],
            [
              31.570008372080263,
              46.76935601925374
            ],
            [
              31.570008375792167,
              46.76935602850512
            ],
            [
              31.57144836461849,
              46.77231815528493
            ],
            [
              31.570419392813672,
              46.77255429448099
            ],
            [
              31.570419386768705,
              46.77255429598248
            ],
            [
              31.570413399058204,
              46.77255589847063
            ],
            [
              31.5704133873261,
              46.77255590207546
            ],
            [
              31.570407657060844,
              46.77255790008204
            ],
            [
              31.570407645899504,
              46.77255790445959
            ],
            [
              31.570402228264996,
              46.77256027874276
            ],
            [
              31.570402217781904,
              46.77256028385089
            ],
            [
              31.570397164952855,
              46.772563011545024
            ],
            [
              31.570397155248976,
              46.772563017334534
            ],
            [
              31.570392515886855,
              46.772566072170534
            ],
            [
              31.570392507055637,
              46.772566078585655
            ],
            [
              31.570388325840025,
              46.7725694311438
            ]
          ]
        ]
      }
    }
  ]
}
