{"type": "FeatureCollection", "features": [{"type": "Feature", "properties": {"role": "settlement", "name": "Боярка", "osm": ["relation/2222157"]}, "geometry": {"type": "Polygon", "coordinates": [[[30.247331815723925, 50.33969170130497], [30.251718015723927, 50.34015530130497], [30.253772147025217, 50.33961016473686], [30.254332139390172, 50.33911105348364], [30.256182549795945, 50.33909338812326], [30.260305368391997, 50.337308557007646], [30.2620869678685, 50.33812263908365], [30.264003552200283, 50.33948659595581], [30.267843243335335, 50.34127411268714], [30.26816244719073, 50.341705703115274], [30.265795914391045, 50.34391897542112], [30.265646102841405, 50.34529288519196], [30.2682235028414, 50.348618485191956], [30.269530445721852, 50.34931763644901], [30.271215145485048, 50.34917041056942], [30.27919344705545, 50.34602806250666], [30.28219886755238, 50.34793047559654], [30.278475896296765, 50.3502709726752], [30.277840961762422, 50.351253375081846], [30.27850321239693, 50.35222829440417], [30.280835263345303, 50.35363891549866], [30.282227611798838, 50.35396149875932], [30.28158497716796, 50.35492546700743], [30.28180122448558, 50.35529157148401], [30.28146337793745, 50.355923782372045], [30.282085373211842, 50.35682938271443], [30.28365707321184, 50.35783218271444], [30.285149358392808, 50.35822597014509], [30.286638396848975, 50.357827134820155], [30.29236854735019, 50.35415070751798], [30.293373065688204, 50.35475475193564], [30.294863250794737, 50.35512031726563], [30.296325767210195, 50.354711162093274], [30.306360682138465, 50.3488409109712], [30.307010907687836, 50.348088868258515], [30.306826992035006, 50.34723660664461], [30.30490444521116, 50.3445133232334], [30.303408598759003, 50.34159380149867], [30.30260919701967, 50.339255478788104], [30.302152898438283, 50.336875487087035], [30.301270379897574, 50.32169283299041], [30.302146696286414, 50.32108279529153], [30.30301016457969, 50.320105083067304], [30.305026091221244, 50.31979405718631], [30.306066849212304, 50.319193947212234], [30.306261447281198, 50.31844077012257], [30.307917070755586, 50.31865856445158], [30.308468384561994, 50.31858380626979], [30.30947929585812, 50.31870488833087], [30.310479495858118, 50.31857518833086], [30.312660275844557, 50.317452104562754], [30.312892665226943, 50.316430839509394], [30.31251304875279, 50.31545409168815], [30.31478429355957, 50.3151558230872], [30.31611867821352, 50.31457840285443], [30.316232941858228, 50.31420944174478], [30.329719336534758, 50.31238000137315], [30.329903445800042, 50.312611215626845], [30.331374555473662, 50.312946073824854], [30.334219126858162, 50.31270892869081], [30.335527824712678, 50.312163629531746], [30.337446772388155, 50.31100394863818], [30.337919060867783, 50.31053498711133], [30.33817580726312, 50.30958077615058], [30.338037086441346, 50.30943802023943], [30.33910552834355, 50.30873282129706], [30.339262027566285, 50.30791903478475], [30.338280839240632, 50.30452780263421], [30.338315815245615, 50.30408645749299], [30.34549536156931, 50.3029601831198], [30.34656819093751, 50.30393880163333], [30.348198414506417, 50.30405351723182], [30.350323492471507, 50.30364582217183], [30.35100032332896, 50.30560218646689], [30.35076638992699, 50.306467384065044], [30.352141025702903, 50.30934887238037], [30.351590301427123, 50.30992678380735], [30.351353530975853, 50.31099223381312], [30.351919430975855, 50.31232833381312], [30.353360471490962, 50.31327365722188], [30.354610371490963, 50.313509957221875], [30.355543580826556, 50.313577185611194], [30.357143268165725, 50.313178015111376], [30.35771929026261, 50.312203976217205], [30.359064940931063, 50.31103806024572], [30.35953750703602, 50.30986638659295], [30.35982978989208, 50.30974624853675], [30.360244727548356, 50.30882994300893], [30.36000799420888, 50.30754876279827], [30.36099268255678, 50.307006406677615], [30.361338390102855, 50.306178879378926], [30.36142909010286, 50.30531867937893], [30.360897014802305, 50.304113091100156], [30.361063202054563, 50.30252323931518], [30.36341252636659, 50.29960213219982], [30.36451894428515, 50.297886709856044], [30.364548893906846, 50.29690851108362], [30.363547826222128, 50.2961716213802], [30.362036147260724, 50.29605911358967], [30.339948097906163, 50.299523585586506], [30.334270610826632, 50.30202146443855], [30.331053885863156, 50.300575324726246], [30.329596765833685, 50.300329817293004], [30.32751796583368, 50.30047551729301], [30.326113481653824, 50.30096496565694], [30.3259075931764, 50.30139618028503], [30.323138238785063, 50.30182193000658], [30.322206347993664, 50.30106227698936], [30.320499019813962, 50.300987355440796], [30.318656020205445, 50.30129391359576], [30.317449630949262, 50.301803529226284], [30.31250636039763, 50.30156441768579], [30.31167753018259, 50.3007954284839], [30.310052059429236, 50.30062353595812], [30.308545386542086, 50.30092948091423], [30.307336009951463, 50.301464775695884], [30.306942409951464, 50.30172957569589], [30.306523188042508, 50.30251102160654], [30.30523149133484, 50.30265023369866], [30.304172441409865, 50.301966132924825], [30.3026765, 50.30156642514927], [30.301413, 50.30156642514927], [30.29966681106908, 50.302161171936525], [30.29964505889394, 50.302288635344034], [30.296070917332734, 50.30316335568308], [30.29509416518222, 50.30371501989756], [30.29486343347625, 50.30436664756936], [30.294251464015105, 50.30456557859451], [30.29303736300616, 50.30593143041733], [30.29172550955278, 50.306114909877515], [30.290401987018743, 50.30666081288522], [30.290032851644728, 50.3076435454421], [30.290191710113774, 50.30861958423613], [30.291008035945904, 50.309518135313276], [30.29081836330633, 50.310261486607814], [30.291443563744128, 50.31196481675378], [30.290886785089082, 50.31224762340735], [30.29053958508908, 50.31287672340735], [30.290538337010837, 50.31347818524517], [30.28950095443428, 50.31390543804497], [30.28918787167406, 50.31495843777289], [30.289781617499447, 50.316688147578255], [30.284087812505387, 50.31762575864181], [30.28278491309922, 50.31826040428389], [30.28257760326545, 50.31930285239984], [30.284684791074472, 50.32392703836746], [30.28373324522235, 50.32468939616563], [30.28224939018116, 50.32533967112889], [30.28165962899615, 50.32532415918147], [30.28055789866173, 50.32567848384025], [30.28019527769234, 50.32609342833438], [30.276149253813898, 50.327346947773954], [30.271308649949184, 50.32855230294514], [30.270302423835698, 50.32754997352023], [30.26872074686379, 50.327382391848055], [30.26772114686379, 50.32753029184805], [30.266362256086445, 50.328179125534085], [30.2661817671511, 50.32926116649426], [30.266428791665405, 50.329764310074864], [30.261714993277923, 50.33097833327378], [30.257046568835975, 50.33282601215583], [30.2508924475615, 50.33392428112433], [30.24972965371449, 50.33446734876665], [30.249041569231338, 50.335120779673346], [30.248471511565402, 50.33534205762883], [30.245967611565398, 50.33755425762883], [30.24556620408725, 50.338420386090064], [30.246099840526178, 50.339256491026866], [30.247331815723925, 50.33969170130497]]]}}]}