{"type": "FeatureCollection", "features": [{"type": "Feature", "properties": {"role": "settlement", "name": "Софіївська і Петропавлівська Борщагівка", "osm": ["relation/3572141", "relation/4741502"]}, "geometry": {"type": "Polygon", "coordinates": [[[30.319918670528867, 50.39607702534926], [30.318787349800306, 50.3960537021297], [30.317647611621254, 50.39663284734613], [30.31444841260147, 50.39998034438359], [30.307010407367745, 50.407134651994745], [30.306704312535903, 50.40819122805366], [30.30769152540314, 50.40905930866712], [30.31433910610261, 50.411577227903564], [30.31124462622336, 50.41465482259958], [30.31044399051223, 50.41431757085185], [30.308848164579572, 50.414124122702646], [30.30750926373437, 50.414713997733955], [30.30416696934702, 50.4180621298193], [30.30429191903411, 50.41956428108082], [30.312640838266653, 50.42674807101782], [30.312348324790236, 50.42786391151566], [30.311973135934604, 50.428437015710024], [30.311189460458827, 50.43206887138573], [30.309845092961226, 50.44013060325351], [30.309731599562948, 50.441505545931264], [30.310071076267967, 50.44231548856131], [30.310889338066563, 50.44317652539944], [30.311847475178723, 50.4438373573464], [30.313239610865743, 50.44396625477887], [30.314240626219764, 50.4438388619798], [30.315628264489213, 50.44404039099391], [30.32032419126735, 50.44391102779477], [30.321252241219057, 50.44375802234223], [30.323882281338367, 50.44449355190235], [30.328483081338366, 50.44540135190235], [30.33307329837896, 50.446076457741206], [30.34368828740757, 50.44720591463695], [30.346656466744264, 50.44737545346333], [30.345449273714237, 50.44944029198632], [30.34572573451585, 50.450602035531816], [30.34637306296645, 50.45111656254387], [30.34767757942427, 50.45172011948368], [30.34958137903022, 50.45162870973221], [30.35055010561285, 50.45083787871769], [30.35075556578126, 50.45039032037884], [30.352588275897475, 50.45010293044798], [30.353341558079844, 50.44908475305031], [30.35339700888184, 50.446712471603284], [30.353823900292813, 50.446589189442875], [30.357949981237585, 50.446587107685744], [30.359474551595344, 50.4462665939303], [30.360209713058154, 50.44535150205289], [30.36221935532889, 50.43372209617669], [30.36843979347434, 50.42546770057595], [30.368459761035652, 50.42422752404974], [30.369325451208606, 50.42389118307066], [30.37000384756535, 50.4234174257161], [30.37132438915777, 50.42201755753024], [30.372783381757205, 50.42091586597237], [30.392542489697387, 50.40849202628032], [30.39567345239088, 50.40685725426669], [30.39888564289054, 50.405760690665055], [30.399960264764815, 50.40489782689322], [30.399679125964504, 50.40380806467529], [30.397968789214517, 50.40214482068881], [30.397698170908726, 50.40076287945041], [30.40455505374631, 50.399937199569806], [30.411268031811407, 50.397779656641305], [30.412291653914465, 50.39702739610276], [30.412235857297922, 50.396029326985115], [30.411900610795445, 50.395815965519674], [30.41225758625323, 50.39582494311678], [30.41335234985124, 50.395346333080944], [30.414541189807082, 50.39442765994417], [30.415659029969234, 50.3946237868589], [30.416921271370313, 50.39429042205088], [30.418217122222142, 50.393554759488616], [30.418923396699036, 50.39336817299222], [30.4198206054956, 50.39426522659237], [30.420958649019052, 50.395024982235185], [30.422600772674688, 50.39503292669954], [30.42665638979285, 50.39261499497867], [30.428486452755433, 50.39322479854594], [30.430239924456515, 50.39275332369395], [30.444176803863133, 50.382304448462776], [30.44468622955489, 50.3815266456854], [30.444227547969607, 50.380545591280416], [30.44031863141145, 50.378120099851486], [30.43508106995936, 50.373484406045236], [30.431914712732727, 50.37101024343516], [30.430411531463296, 50.3705104912877], [30.428818781964676, 50.37087866222504], [30.427128292979027, 50.37171834651005], [30.417066248490556, 50.377419585083466], [30.410472359956756, 50.38071045340634], [30.40729399279547, 50.38205499116802], [30.405365866768797, 50.38267948326525], [30.404873442843904, 50.38305341894481], [30.403945842694803, 50.38306045586989], [30.401088742694803, 50.38379165586989], [30.399974522231638, 50.38445328588313], [30.39983826422897, 50.38542354545552], [30.400552541324352, 50.38703417658832], [30.396952665171614, 50.38926191429464], [30.396227435896833, 50.39002048564159], [30.3963905480977, 50.39090427533633], [30.397371841578725, 50.39153313488336], [30.39824333596109, 50.39180407343619], [30.393579731395366, 50.39059056530153], [30.392003558609908, 50.390587242812956], [30.390861702168834, 50.39128451127467], [30.38983351744101, 50.39272971955388], [30.388966035807034, 50.39328464641156], [30.387237183969717, 50.392459495969916], [30.386880928515225, 50.391912937187094], [30.385288310402046, 50.3915401955383], [30.384601310402044, 50.391567895538294], [30.383188747011598, 50.39199585741505], [30.38262092728258, 50.39311103061164], [30.375088597962222, 50.39557041715983], [30.374075280840334, 50.39611508661423], [30.37037951225236, 50.39756031908839], [30.368899496089938, 50.396826488691254], [30.3671290949746, 50.39711209545086], [30.366199627411703, 50.3987217077689], [30.365762442130528, 50.398693784978434], [30.36453543634631, 50.39928311527052], [30.360941376942623, 50.40277975276228], [30.359011323187133, 50.40285400002158], [30.358967796365906, 50.402227643798824], [30.357663203891203, 50.400555944031765], [30.35614834918297, 50.40018633430737], [30.354208131167653, 50.40022365552842], [30.353914724046934, 50.39998403171738], [30.35270950997466, 50.39974553459611], [30.351665509974662, 50.3997480345961], [30.3508953944905, 50.39992149446882], [30.349986258739793, 50.39957908568964], [30.348374385393907, 50.399437695539085], [30.34699549590514, 50.40017053000776], [30.34566541318625, 50.39942550047393], [30.34548656272982, 50.39727039685717], [30.34447527440844, 50.3961781622021], [30.327253035188775, 50.38964133659315], [30.3258539740934, 50.38958514747844], [30.324707591988226, 50.39010287839885], [30.321594098686703, 50.39289911591217], [30.321228562493918, 50.39393019394185], [30.321707473913015, 50.394402640357036], [30.319918670528867, 50.39607702534926]]]}}]}