{"type": "FeatureCollection", "features": [{"type": "Feature", "properties": {"role": "settlement", "name": "Бориспіль", "osm": ["relation/1934961"]}, "geometry": {"type": "Polygon", "coordinates": [[[30.896870745165593, 50.37345535794971], [30.900861845165593, 50.380475457949714], [30.901767901286167, 50.381176868101434], [30.90316030038331, 50.38135174757571], [30.904815737169812, 50.38119159893756], [30.906400628373706, 50.38151601850588], [30.917657817422217, 50.3805454588154], [30.914494376714057, 50.38463249114239], [30.91408193640227, 50.385686040937415], [30.91421363948609, 50.38646684324747], [30.914982702990056, 50.387252400248116], [30.916344257321608, 50.387755870488384], [30.91778514181417, 50.38792073264679], [30.920688661487954, 50.387929363002264], [30.933777814714368, 50.386880114328385], [30.935514669546453, 50.38593848950249], [30.936135610252705, 50.38449960728307], [30.941416421192354, 50.383265834201815], [30.94823104197736, 50.382007419679816], [30.948762205557173, 50.38309584318434], [30.948122644014322, 50.384674260621765], [30.948721152080964, 50.38553994771326], [30.948567223158747, 50.388052472495225], [30.94754296543696, 50.38865087214129], [30.94742516331892, 50.38965130411469], [30.95074685943942, 50.3963768399191], [30.949776296831153, 50.39678849442044], [30.94943259903399, 50.3977816257685], [30.95104352152528, 50.405026080966294], [30.94891373363086, 50.4050423207121], [30.947411792717954, 50.40546168302895], [30.94682783135255, 50.406444645411746], [30.946868931352554, 50.407232645411746], [30.94761853547506, 50.40881428850862], [30.94615655166296, 50.41079337773253], [30.946030651662962, 50.413555377732536], [30.94687160026305, 50.41467922796603], [30.948785242212086, 50.41488759595173], [30.961549172266974, 50.4123130046027], [30.962953846388427, 50.41141897871689], [30.963728225754934, 50.40971079881358], [30.963890479152376, 50.40986043994829], [30.965283124549572, 50.41010334354014], [30.967763124549577, 50.40996994354014], [30.969155583898495, 50.4095263722376], [30.969698637688303, 50.408590776218816], [30.9696732376883, 50.40776847621882], [30.96900007741991, 50.40680182987253], [30.968372876079165, 50.40631294360354], [30.966456212066024, 50.399929668281075], [30.967895692735798, 50.398400482876276], [30.972324834548687, 50.396543025342574], [30.973243943660574, 50.39538532714532], [30.973232309441787, 50.395115481994914], [30.974346413284607, 50.394434662676375], [30.97570465723144, 50.39328246848916], [30.9769921345633, 50.39152156794099], [30.977887698091656, 50.38884135036405], [30.980578307687903, 50.374488261498875], [30.98068534902098, 50.373745130200284], [30.980239176285057, 50.37277312559083], [30.980032473731473, 50.37269732353995], [30.980787186626007, 50.371489870406315], [30.983441106405767, 50.36902629546689], [30.984954619808374, 50.36860309875435], [30.996364898772587, 50.36040471482764], [30.99903632515314, 50.35826354397323], [30.99925500337812, 50.35764789522423], [30.998959473232343, 50.35688074396247], [30.998048770775, 50.35634948155354], [30.9946795797275, 50.355343598159706], [30.99301169409764, 50.35504199157713], [30.993176366505836, 50.354592616054454], [30.993716114299534, 50.354050846217376], [30.9952031300731, 50.35401691112444], [30.996333309077375, 50.35324689757036], [30.997912853008057, 50.3530266295099], [30.9986618059967, 50.35225807208247], [31.00053585886448, 50.35256224058699], [31.002143412076485, 50.35240883720952], [31.003105507215697, 50.351567333410536], [31.006188521025425, 50.34344359886765], [31.00728538973507, 50.341381924075684], [31.009439667671472, 50.33909137385885], [31.009718199581695, 50.33817793262536], [31.009015097159942, 50.33736408397374], [30.99616439715994, 50.33020988397374], [30.993841411133708, 50.330020149415745], [30.988197961904866, 50.332183154865184], [30.988290483447027, 50.331826708235944], [30.987838994976293, 50.33074200138178], [30.986270207958572, 50.33024713098666], [30.98234400795857, 50.33017173098667], [30.978256059736765, 50.33095077394131], [30.977554161992327, 50.33096878906508], [30.97911939571474, 50.32845282966309], [30.979119080500677, 50.327445063956574], [30.977677109696693, 50.32660944851912], [30.976251306737264, 50.32653256771777], [30.9681219531148, 50.32793208542118], [30.9641990143605, 50.32821520688939], [30.96274332298174, 50.328751019967584], [30.962354795889347, 50.32979955837251], [30.963380930615624, 50.33313699469862], [30.963274842089692, 50.333359692932795], [30.96147710215099, 50.33371568297252], [30.959593241525358, 50.33359588830552], [30.957699336638363, 50.334008400090454], [30.957057417645544, 50.333963404445115], [30.956045622898195, 50.33110344496485], [30.955115301846988, 50.330257472237186], [30.953526975937958, 50.33007965784164], [30.952392400019217, 50.33024194938206], [30.95164956282811, 50.329643054660195], [30.95110393162544, 50.32960454197208], [30.94548524514403, 50.31755973831448], [30.944449283970215, 50.3167496934292], [30.942823998006954, 50.316655711916844], [30.93053499800696, 50.31915741191684], [30.929322942903024, 50.319796295071626], [30.92913020942384, 50.32079589946707], [30.932483487109316, 50.32899362731511], [30.932120105273412, 50.329205140173656], [30.932126649128154, 50.33030989333891], [30.933132235028623, 50.33174481790037], [30.931110071564696, 50.33221844224167], [30.926856138907933, 50.333974468923195], [30.924232438907936, 50.33518456892319], [30.923387452811205, 50.33603947901972], [30.923449606207274, 50.33713766266374], [30.924278461577643, 50.337742987612486], [30.926504434123117, 50.33861525563559], [30.924405610128566, 50.344380910197096], [30.918205704246343, 50.34441845253202], [30.914944445195605, 50.34397245317417], [30.914581864230218, 50.34234422051418], [30.91383522675862, 50.34136674972733], [30.91263681497152, 50.340791870669264], [30.91072271497152, 50.34043897066927], [30.906426575832214, 50.34014213337206], [30.904732011257394, 50.34049635435585], [30.90406230769347, 50.341557296235855], [30.906104683400475, 50.367671881365624], [30.89886417865865, 50.3691362447887], [30.89754868967863, 50.36990873315461], [30.897621344546536, 50.37105277735778], [30.89816979213813, 50.37173572173087], [30.896969075375157, 50.372378411273665], [30.896870745165593, 50.37345535794971]]]}}]}