{"type": "FeatureCollection", "features": [{"type": "Feature", "properties": {"role": "settlement", "name": "Бровари", "osm": ["relation/1929810"]}, "geometry": {"type": "Polygon", "coordinates": [[[30.735840682457344, 50.49967612128964], [30.736118582457348, 50.49994392128965], [30.738105022042387, 50.500542310340066], [30.73880489127714, 50.500495098900366], [30.739472030199337, 50.50098047624325], [30.743520898408505, 50.5027863071536], [30.743500534339184, 50.50306143796714], [30.74397184969375, 50.50374978830927], [30.744776568482692, 50.50428132874363], [30.746342380126848, 50.50442356842765], [30.747385199606555, 50.5039426393556], [30.747263533403817, 50.50503197608296], [30.748064580738806, 50.50571827825661], [30.7529505127026, 50.507928006392305], [30.755262568825785, 50.5086183774442], [30.755387450906433, 50.50945559688685], [30.75668927438783, 50.51011619974975], [30.75874676094536, 50.51047706231088], [30.759410878505832, 50.51043838355507], [30.7593371456261, 50.51156923241166], [30.75351765635753, 50.51492075962164], [30.752306922747977, 50.5159868965819], [30.750704548195465, 50.51781319583524], [30.750517901918233, 50.519025388856925], [30.751924635243913, 50.519845107440034], [30.755969056740767, 50.520567049593886], [30.758866219396626, 50.52087543479493], [30.76172268302897, 50.52191634736036], [30.764263810071437, 50.522226096683035], [30.770020815907248, 50.52382404760144], [30.77104937602942, 50.52442308767315], [30.776478376029416, 50.52632938767315], [30.782103724485406, 50.528130326052036], [30.784532732433863, 50.528748044496055], [30.79169072244436, 50.5301491243062], [30.7943012271999, 50.53098860019491], [30.797960890492796, 50.53129452027145], [30.801480267006287, 50.532211328931545], [30.804713369056973, 50.5338255225958], [30.80737826758617, 50.534843373132965], [30.81551066806929, 50.536113181350025], [30.817427681615076, 50.53678274687099], [30.818871660478532, 50.536987929046354], [30.82017334904632, 50.53653808321467], [30.823905862341803, 50.53402163832006], [30.830469662729207, 50.53806532136904], [30.831950692892914, 50.5384441512604], [30.83342464484971, 50.53805416148342], [30.83521033526769, 50.536928126429125], [30.835674707454007, 50.53681046797377], [30.83594143272877, 50.53690199661987], [30.837698265471566, 50.5365182434818], [30.838530313248764, 50.53555044952102], [30.83796287950647, 50.534507120675784], [30.836863023940285, 50.53381358198059], [30.84159116701956, 50.53106616378382], [30.842201550477224, 50.530129029068235], [30.8416256845146, 50.52918297511841], [30.841198308218267, 50.52889220323723], [30.847045346526553, 50.52531828048277], [30.860411262172057, 50.51793785595144], [30.861155994809558, 50.51690659190103], [30.860415279617712, 50.51587414163413], [30.850117457775134, 50.5106729515517], [30.85072310323207, 50.51023990819745], [30.85153266395122, 50.51043360630049], [30.85301789752766, 50.50998937923828], [30.86565130493952, 50.500986705616306], [30.866192129951745, 50.50014225011892], [30.865775427549828, 50.49926940485174], [30.86150062754983, 50.49559010485174], [30.86002228016946, 50.49505065315166], [30.858401162326345, 50.495381538792564], [30.85433968580849, 50.49767086114065], [30.85309073662219, 50.49672444275906], [30.851663741001133, 50.496248958630275], [30.85012656854674, 50.49655246765145], [30.841163742993217, 50.501274979132816], [30.84051387400057, 50.50053573845439], [30.839226134525468, 50.49989250910795], [30.838820636787155, 50.499926174599594], [30.833612322715663, 50.49614826423897], [30.833837792525124, 50.49542125155508], [30.833126106509113, 50.49310896954578], [30.832739528572624, 50.48903070535566], [30.83185076466589, 50.48761243831581], [30.829780605192543, 50.48632167269329], [30.830247491430555, 50.48536996742905], [30.829784542628285, 50.483988686493696], [30.827315037561032, 50.4825299677698], [30.82521186907501, 50.48174116278634], [30.82174228976897, 50.48105975133565], [30.818805090457143, 50.48095074622943], [30.799534435168034, 50.48099912528145], [30.79912026354795, 50.481118652948105], [30.771943072065955, 50.48104816643957], [30.7708292524358, 50.48125455866514], [30.764226141727995, 50.48129780022234], [30.76242420784355, 50.481033627209726], [30.760542707843555, 50.48103572720973], [30.75594158225642, 50.48142784008557], [30.75417481424388, 50.48191238252704], [30.75355538241662, 50.482789638514234], [30.754000475268096, 50.4837092624356], [30.754463675268102, 50.4840889624356], [30.756030576818024, 50.484608882091145], [30.756659528507885, 50.484628416808825], [30.754233850539386, 50.48782636616625], [30.753066453316226, 50.48728475885228], [30.75232195481592, 50.48666123590671], [30.75120595481592, 50.48639523590672], [30.74971018426457, 50.486283519558214], [30.747570680300655, 50.486643865192015], [30.746805624852886, 50.48739374031892], [30.745648002322294, 50.490252923246146], [30.745080076683095, 50.490091064438964], [30.744960874165606, 50.48976191168461], [30.743831591611286, 50.48920817287819], [30.743186791611283, 50.48907537287819], [30.74171050785962, 50.48911805769144], [30.74090467699123, 50.48960623425384], [30.739196646936904, 50.48970245457218], [30.738161184680468, 50.49057121955414], [30.73796363790754, 50.49105251023376], [30.73812808700875, 50.492050226898364], [30.739140795969345, 50.49260583389617], [30.73793995079763, 50.494350814279244], [30.73702030313181, 50.497184216550416], [30.73618016210589, 50.49773637154516], [30.735723662105887, 50.498301171545165], [30.735840682457344, 50.49967612128964]]]}}]}