{"type": "FeatureCollection", "features": [{"type": "Feature", "properties": {"role": "settlement", "name": "Буча", "osm": ["relation/2265598"]}, "geometry": {"type": "Polygon", "coordinates": [[[30.15721949266369, 50.55115842788767], [30.157711126001782, 50.55299481917746], [30.16225718194692, 50.55808431220879], [30.16180402829646, 50.55856517540454], [30.161487009758773, 50.55946291964685], [30.16213812261772, 50.56028359960703], [30.166676647464026, 50.56356406767638], [30.16816190606461, 50.56442731707919], [30.169936942273427, 50.567064217804734], [30.16507468860833, 50.56765342396108], [30.163641571155598, 50.56829848461078], [30.163456136313492, 50.56941334928864], [30.164457836313492, 50.57134854928864], [30.165437078077986, 50.57210667924063], [30.166959490948795, 50.572242385161196], [30.183985967481394, 50.569663524368416], [30.18443784577017, 50.571865007165265], [30.18524613826993, 50.57276321038976], [30.18680956383477, 50.573034308873396], [30.18799662031206, 50.57260034944695], [30.193827088663415, 50.572252476017574], [30.195347013938836, 50.571725457346005], [30.195673734203407, 50.5708506719], [30.210995309555024, 50.570839078209424], [30.211877706913338, 50.57072400330906], [30.217856011560404, 50.57273959227523], [30.218419997453832, 50.57274887101441], [30.22029007530612, 50.57341355833998], [30.221788334967048, 50.57346539419624], [30.224714572827338, 50.57319645721441], [30.239904979942498, 50.5745645994434], [30.25074159458452, 50.57516092231553], [30.25228858152947, 50.57541418568537], [30.25338708872912, 50.57591219495151], [30.254843621429565, 50.57613675773992], [30.256168631033564, 50.57568930576474], [30.256981228411277, 50.57509770134766], [30.25867319038025, 50.57487452721756], [30.259512322343976, 50.57408815546514], [30.260599925960847, 50.57128411729694], [30.260817978096103, 50.57120679728063], [30.261115505243264, 50.570037639418025], [30.260713846182828, 50.56759292887245], [30.261203747545473, 50.5671045743768], [30.261557661207114, 50.56623566415908], [30.261314096738843, 50.56522695944969], [30.260040743172766, 50.564612214300695], [30.258301779029118, 50.56477209383609], [30.258261326032347, 50.564149475593545], [30.259152678431892, 50.5640712870771], [30.26011535679423, 50.563128406201024], [30.260260156794228, 50.56251850620102], [30.26008081049574, 50.55857812277085], [30.25947833367885, 50.55626194988039], [30.25893239562808, 50.55556734381418], [30.25944470486875, 50.55472152682671], [30.259045785520545, 50.551549853199376], [30.25999671363066, 50.54839208295178], [30.2592420269869, 50.54762610239086], [30.249161246182837, 50.54228299000612], [30.24759818162718, 50.541726060676424], [30.244482085166112, 50.54110384119474], [30.24492806779602, 50.54027625418066], [30.24487374568391, 50.539301311913356], [30.243811280887748, 50.53860163865801], [30.241933780887745, 50.538047638658], [30.241018069641935, 50.53792304032733], [30.236316418804748, 50.5379710329311], [30.23254496738613, 50.53649794273056], [30.221742351237083, 50.53013062294996], [30.209314751506803, 50.523752820225674], [30.20450553929582, 50.521928451432835], [30.20078880554058, 50.51935380998578], [30.19368209251182, 50.51540400018482], [30.192211674652086, 50.51507227717558], [30.190784186846027, 50.51547349565375], [30.189464586846032, 50.51632619565375], [30.188397710139718, 50.51716134996841], [30.18753512721176, 50.51828305273187], [30.18425771339994, 50.52524269948187], [30.1839588925263, 50.52717621680979], [30.18007206566345, 50.53445621200964], [30.180151853140853, 50.5354614305882], [30.1806592789627, 50.53577013133321], [30.185405670057467, 50.5420505478726], [30.183169221859444, 50.542088801417904], [30.1815817843673, 50.542354550831035], [30.158609779872485, 50.54950427190457], [30.15767074022355, 50.55008405591956], [30.15721949266369, 50.55115842788767]]]}}]}