{"type": "FeatureCollection", "features": [{"type": "Feature", "properties": {"role": "settlement", "name": "Ірпінь", "osm": ["relation/11092577"]}, "geometry": {"type": "Polygon", "coordinates": [[[30.187558989127666, 50.51424052204541], [30.190036442221928, 50.51597145630397], [30.19041427331731, 50.51608682662502], [30.190172744432406, 50.516459580115075], [30.19090195405862, 50.517452972562836], [30.193096205393832, 50.51867776746779], [30.19348923543205, 50.519139160329274], [30.194139472958167, 50.519307522074115], [30.197853030831954, 50.521319769423805], [30.20163571179973, 50.52393636841091], [30.206865913862156, 50.525975288046176], [30.218947379730796, 50.5321908727952], [30.22984542522443, 50.53859239203582], [30.234882122574692, 50.54053787402347], [30.23689839433463, 50.54071422996389], [30.24022481079077, 50.54068162418805], [30.239295595078957, 50.54270283205593], [30.23966131366088, 50.543781208585415], [30.24115716049793, 50.54432899886059], [30.24379230735112, 50.543785983834255], [30.246398464226555, 50.54436927127111], [30.25661616865749, 50.549756843404545], [30.25805935808995, 50.55041911845118], [30.2598410929622, 50.55088559438644], [30.265774601957904, 50.55102812738147], [30.266926239142762, 50.550293197468434], [30.267127170379496, 50.54998317456066], [30.26793182219594, 50.55008371857551], [30.269834612179864, 50.54986115070978], [30.272562338753055, 50.549200629722016], [30.276982202728266, 50.55033728673102], [30.278512992859696, 50.550394307684044], [30.2797030253452, 50.54977503868585], [30.280033595901404, 50.54916457072282], [30.280866291229025, 50.54917312926005], [30.280668284893103, 50.549888732117545], [30.281239317992718, 50.55104240616463], [30.28093711268002, 50.55189962545], [30.281071212680022, 50.552145025449995], [30.282085947377848, 50.552898159305066], [30.283928539926194, 50.55313930548077], [30.285285551735562, 50.5530778626132], [30.286394255981737, 50.552740826357415], [30.28879738619567, 50.551191490522825], [30.289381252424622, 50.55029306030437], [30.28952475943965, 50.547382471859876], [30.290004996276195, 50.54718673827655], [30.290758252078465, 50.546419804655116], [30.29092390080932, 50.54515151380519], [30.29187413967499, 50.54480380069536], [30.292315694110638, 50.544166422911985], [30.2923134493951, 50.54343036933191], [30.292012600475054, 50.54288242014857], [30.292513739649944, 50.541895495228616], [30.29256712838851, 50.54073050043465], [30.293048756408815, 50.53979047747766], [30.292704844182055, 50.53879055117571], [30.29218546506587, 50.5384114010161], [30.292363225333023, 50.53703394502888], [30.292177311211802, 50.53625217250455], [30.291613694354627, 50.53570579787939], [30.29079107148493, 50.535345526205624], [30.290726793563238, 50.53515291469095], [30.291853442877535, 50.535065015902994], [30.29331494651683, 50.53451251083641], [30.294419850722655, 50.53355373124535], [30.294661131099975, 50.53219116881657], [30.29242343949746, 50.52894302813983], [30.29296595085299, 50.527671859485245], [30.292413070304715, 50.526349965065805], [30.28909363254365, 50.52420770223867], [30.287185021984325, 50.52381970703007], [30.28502476138153, 50.52219591941387], [30.282824061976292, 50.52116454346633], [30.281259100473587, 50.52101544132715], [30.27904969047764, 50.520271386431645], [30.276874672413356, 50.52012010018936], [30.275121909975084, 50.52016643097987], [30.274386633318823, 50.51987659080694], [30.273671615543844, 50.51894134948798], [30.272996856873323, 50.51851429728266], [30.270056919039185, 50.517476904647225], [30.26865140222728, 50.516626636332695], [30.26735194306185, 50.5150412689762], [30.265828348635, 50.514194070307255], [30.26492936668657, 50.51287628050288], [30.262963539413683, 50.51090706176106], [30.262649303971664, 50.51036883116976], [30.264061979812347, 50.50855200049825], [30.26570465953383, 50.50708697036963], [30.270970945128216, 50.50398860503808], [30.272168880384104, 50.50299167332648], [30.272585543305134, 50.501507306269694], [30.272169003124013, 50.49799794799329], [30.27179609167751, 50.49743757796948], [30.26786352227811, 50.49375330699163], [30.268237510308268, 50.493390053903475], [30.26858432350608, 50.492569782427545], [30.26810132771129, 50.491778265514924], [30.26530216691112, 50.48869980957819], [30.265081914558248, 50.48771303764598], [30.2645672836255, 50.48710860925003], [30.262632143179793, 50.48639372115314], [30.26137311524565, 50.48638783313549], [30.259389308773724, 50.48548261963487], [30.258486649470534, 50.48525587642281], [30.255782148679543, 50.485200267372484], [30.254213097300035, 50.48538540727485], [30.25375471196833, 50.48454825107046], [30.253475491931503, 50.483125729299196], [30.253613151114163, 50.480205681845575], [30.252954590089033, 50.47823967420476], [30.251792152052904, 50.47689616549733], [30.251244123557072, 50.47444981532766], [30.251475752295292, 50.474044623234285], [30.25084545403331, 50.47311930312765], [30.248815054033308, 50.47183730312765], [30.247551638107357, 50.47145424511783], [30.246190632248727, 50.471658435429234], [30.245909391886865, 50.471886528855876], [30.239291616908588, 50.47205286796371], [30.237678212863973, 50.4725610164785], [30.23725532224931, 50.473680146510326], [30.23754188650983, 50.47486413382778], [30.236983032186888, 50.474709836216256], [30.23366933948686, 50.47460850867247], [30.218911247348764, 50.47466581974495], [30.20999039039657, 50.47449796392928], [30.20817385862453, 50.474886638420585], [30.207340657370732, 50.47535353978258], [30.20670246610745, 50.47623322848845], [30.205049971903836, 50.47778766091325], [30.194927597605407, 50.486747815289796], [30.18941209955289, 50.492004542890626], [30.188076956479243, 50.494674169368736], [30.18823519903706, 50.49576493388781], [30.18959987850746, 50.496425420684936], [30.19080101950798, 50.49660688870156], [30.18831212088327, 50.498245184313156], [30.187772307247688, 50.49879779032762], [30.18787904349564, 50.50003273135313], [30.18927213668597, 50.50068344117575], [30.191734850952958, 50.501195480525496], [30.1914211969096, 50.502799538121515], [30.189075277322413, 50.50546201033911], [30.18900646719414, 50.50670448175935], [30.18962256597946, 50.508146306045305], [30.188262954196944, 50.509065633942384], [30.18805905419695, 50.50950913394238], [30.188181455482717, 50.510774350537844], [30.188810962479103, 50.51179334934954], [30.187868446422915, 50.51224145497974], [30.187022917557766, 50.51319713131504], [30.187558989127666, 50.51424052204541]]]}}]}