{"type": "FeatureCollection", "features": [{"type": "Feature", "properties": {"role": "settlement", "name": "Київ — Святошинський район · південь", "osm": ["relation/1754751"]}, "geometry": {"type": "Polygon", "coordinates": [[[30.416859179355527, 50.457300047936165], [30.417539836899454, 50.45707618937749], [30.41747806367139, 50.45666580110065], [30.416731001877423, 50.455247382255834], [30.415701905662907, 50.45414806932465], [30.413773130308996, 50.45289086542804], [30.403304598788175, 50.447304612147505], [30.401498268201422, 50.446134433291114], [30.40070438682597, 50.44488180759084], [30.39971116292629, 50.44180753823008], [30.399746893546475, 50.44095491485413], [30.40898864876128, 50.42851580922481], [30.41572605177583, 50.42184740863252], [30.420770913339737, 50.41803764044571], [30.424548559570184, 50.41409366785973], [30.425912059620575, 50.41304405648528], [30.42944594634706, 50.40877027290351], [30.429785533868074, 50.40773048624597], [30.429770896186277, 50.40671040678357], [30.429312483552927, 50.40555239523851], [30.42719637653763, 50.40226774913139], [30.424816376820083, 50.400218274461615], [30.42198431531651, 50.39834349320303], [30.41971579079749, 50.397165068190716], [30.418228921064074, 50.39668791078451], [30.41744582106407, 50.3966292107845], [30.40982458604275, 50.399218700116364], [30.403779005947797, 50.401010696482274], [30.394150878029297, 50.404290692480465], [30.391818927119285, 50.40527975375524], [30.388869979280148, 50.40698934468238], [30.369766178451247, 50.4190128890843], [30.367913333215117, 50.42041124998528], [30.366627746992958, 50.421723367955195], [30.36531646839666, 50.422053989644226], [30.36454508344582, 50.422623087425244], [30.36344018669233, 50.42383283597616], [30.36358898472441, 50.424936634708686], [30.363989804373784, 50.42512934590381], [30.35953805369616, 50.430864648862844], [30.358128739637856, 50.433025258832416], [30.357493378754878, 50.4356134450793], [30.35619001310447, 50.44386850865719], [30.35249589336517, 50.44399630804085], [30.35071259336517, 50.44451130804085], [30.35012809385373, 50.44492466930165], [30.34919413070538, 50.44453312207142], [30.345385019862285, 50.44461965458635], [30.333946820577985, 50.443420592831316], [30.329652179926658, 50.44279254541843], [30.325217779561232, 50.44191757831451], [30.3223427635186, 50.44108910752457], [30.3204230290452, 50.44099565597005], [30.319442013014303, 50.44121327121932], [30.315832481584067, 50.44129116866875], [30.314205181865926, 50.44107650807792], [30.283761094548705, 50.44559191966093], [30.283852532038658, 50.44318686825394], [30.28362379593722, 50.44225797338966], [30.281236588382527, 50.4378108632587], [30.27910654900603, 50.435063538511315], [30.27719508378875, 50.43200350586757], [30.27773214957383, 50.431664408176054], [30.278363433188254, 50.43071090689128], [30.277761224994002, 50.4297497105962], [30.270648969664766, 50.42527092412453], [30.269270578459405, 50.42493863903724], [30.2678875527382, 50.4252629164315], [30.25944457024037, 50.429817905049404], [30.2566327091646, 50.42974774299977], [30.255385945902095, 50.42827752232175], [30.252107290199145, 50.425362044689805], [30.24604443184204, 50.42216445830952], [30.244542515035537, 50.42186035666844], [30.2431285940722, 50.42230519999079], [30.24170196163492, 50.42332012195167], [30.241297914522157, 50.423223402505926], [30.239831892230157, 50.42364372817967], [30.234973615695683, 50.42567948112215], [30.234029695470788, 50.42686126184108], [30.234185195470786, 50.429482361841075], [30.23531307411451, 50.43191942605186], [30.237226700615654, 50.43383201878103], [30.238408518486136, 50.43472592063885], [30.240145315983472, 50.43551382201402], [30.24086772557415, 50.43873698276022], [30.242090438960872, 50.43974995794869], [30.244272792903736, 50.44045798383323], [30.24386584288564, 50.44262284594079], [30.241663571459934, 50.44420816080974], [30.240091871459935, 50.44605116080973], [30.23969106038908, 50.446989073502344], [30.238181175669222, 50.448130491813835], [30.237348775669226, 50.449679491813825], [30.23725633639506, 50.45032074743191], [30.2379346067638, 50.45290585436433], [30.23970151121869, 50.456013213975346], [30.24115279020734, 50.457300047936165], [30.416859179355527, 50.457300047936165]]]}}]}