{"type": "FeatureCollection", "features": [{"type": "Feature", "properties": {"role": "settlement", "name": "Київ — Печерський район", "osm": ["relation/1755013"]}, "geometry": {"type": "Polygon", "coordinates": [[[30.513906999845506, 50.435829641532465], [30.514092855350224, 50.43933738748827], [30.514764698961915, 50.44031672098473], [30.516045741103856, 50.44061270036716], [30.517881798322197, 50.44143539388577], [30.518226656572452, 50.442509170528766], [30.51870919414387, 50.44293607319071], [30.51853517621716, 50.44326749188492], [30.52047828612519, 50.448809404107344], [30.521594865010307, 50.450159322209714], [30.522716326119177, 50.45061478359151], [30.523026994415613, 50.45125987872854], [30.525111730337276, 50.4527627046258], [30.525741458594673, 50.45304361820132], [30.525457371879604, 50.454358645717], [30.525933864551583, 50.45538785104151], [30.527426948917256, 50.455872775675715], [30.530273648917255, 50.45598597567571], [30.53164909523131, 50.45572878647972], [30.532453526995248, 50.454968213188764], [30.53275447026127, 50.454382362742365], [30.53410268816727, 50.45406823192092], [30.53672212638212, 50.45594587722998], [30.53794285228112, 50.456378587648445], [30.539318073369607, 50.4562297091169], [30.545399778749566, 50.454077973017945], [30.552864278749567, 50.450958073017944], [30.556551012836408, 50.44895592025791], [30.56321620778832, 50.445691281215126], [30.56722584992473, 50.4419028612703], [30.571441560064137, 50.437179237717665], [30.577577943560726, 50.4336996534445], [30.58851779066386, 50.42583413877116], [30.59008628462761, 50.42352962366038], [30.592288527967288, 50.417581467613644], [30.592124399323758, 50.416620207224945], [30.59100428033943, 50.41597313782128], [30.576202425881913, 50.412287881654905], [30.57425626467557, 50.41159355701732], [30.57277382464427, 50.41065432704271], [30.57166142161533, 50.409627131472334], [30.569951525471698, 50.4069591677886], [30.568765832970648, 50.40586499590292], [30.56417425572511, 50.40267706451664], [30.562400504011666, 50.401945672108376], [30.560540199659194, 50.40147537904954], [30.55769675499209, 50.40119776742985], [30.554512993890672, 50.40135448917902], [30.543624801814186, 50.40349620857984], [30.53298540183984, 50.40386470706921], [30.52703933924556, 50.405059941204], [30.52414245541836, 50.40610201028089], [30.52245959211529, 50.407069371736796], [30.52104999950611, 50.408185110468686], [30.520716802419965, 50.409232834953905], [30.521669857941184, 50.41011008453673], [30.524302170471685, 50.41133605572997], [30.514096385407996, 50.42765536262882], [30.513906999845506, 50.435829641532465]]]}}]}