{"type": "FeatureCollection", "features": [{"type": "Feature", "properties": {"role": "settlement", "name": "Київ — Солом’янський район", "osm": ["relation/1754514"]}, "geometry": {"type": "Polygon", "coordinates": [[[30.395408261151427, 50.441588488464], [30.39664713366833, 50.44565808389974], [30.397164331834848, 50.4466356065963], [30.39807410443557, 50.44773352834384], [30.400157444299307, 50.4491482630779], [30.41095601296734, 50.45491638290737], [30.41232395131318, 50.45578593409538], [30.413372276613792, 50.45732735423404], [30.41365656115186, 50.45951350552012], [30.414360629675006, 50.460434432446675], [30.41586807022147, 50.460776112235294], [30.416844589180016, 50.46071250762278], [30.467267699923624, 50.45240140757643], [30.468498663462892, 50.451855836946706], [30.468859018643396, 50.45092419779537], [30.468170009556353, 50.44902839471308], [30.468262500375157, 50.44837826496305], [30.468696996817417, 50.447694004641825], [30.473181681929898, 50.44845340357846], [30.47674457082246, 50.448456602812094], [30.47974374810004, 50.447889810643], [30.486174603858476, 50.44589274737402], [30.48774520044102, 50.44513041815578], [30.490901607927135, 50.44297490298557], [30.491510342354328, 50.443011769553515], [30.49337483162393, 50.44256241786894], [30.494218563154558, 50.44169579303471], [30.493903601437186, 50.44076454615284], [30.499038961903032, 50.43704721041507], [30.501407595292594, 50.435535609894984], [30.501944060697276, 50.4352419712595], [30.502433360534663, 50.435196970920124], [30.506380785067854, 50.43385214561147], [30.507426790037535, 50.43329369996546], [30.51145289339303, 50.42938226527723], [30.511865041176684, 50.42825218863725], [30.51177173488773, 50.42685432076773], [30.51305182682703, 50.42526984904345], [30.514099066195538, 50.42297781376485], [30.51622793806942, 50.42030344686128], [30.516515789204014, 50.41952474417439], [30.517092901022277, 50.41892887389733], [30.517446217229097, 50.417867916462264], [30.516474772368998, 50.41697991707604], [30.515891972369, 50.416751917076034], [30.514317230467796, 50.41658799400024], [30.51301199009399, 50.41717653094707], [30.510144296165027, 50.42003764759638], [30.508008372210103, 50.42029760759121], [30.507392687362916, 50.42091679086498], [30.50486968016755, 50.420157352060066], [30.504545274867226, 50.42023821098575], [30.500700822237658, 50.41649042122287], [30.502903549714627, 50.41473801040037], [30.506752256056583, 50.412875157074104], [30.50774168424479, 50.41258898851876], [30.50877325780155, 50.41194699993652], [30.50930595780155, 50.41124659993652], [30.509379526949445, 50.41016489089402], [30.508196132894092, 50.409392983498485], [30.50669044203317, 50.40914332402292], [30.504501827748726, 50.40901569001679], [30.50035597071855, 50.409354604132844], [30.49815820707697, 50.40932677543975], [30.496936975499136, 50.409107787562505], [30.49431355084989, 50.40831915399303], [30.4928819096465, 50.40649877211898], [30.49221371090276, 50.40373964231436], [30.490622016000675, 50.40077631774815], [30.489311004481696, 50.39957542669073], [30.486750606394214, 50.39793990691649], [30.484052448374772, 50.39695770530079], [30.479258942628206, 50.39604973501646], [30.478498000478407, 50.395998469494], [30.477257763193926, 50.3964207495187], [30.476669172252198, 50.39699322667938], [30.475063211602663, 50.397105090462674], [30.47500782027579, 50.39689552150886], [30.473680973655323, 50.395855660452064], [30.472657311541226, 50.39560338261347], [30.47353843518787, 50.39229153066064], [30.473173816098008, 50.391273735800745], [30.471790327931668, 50.390723533739525], [30.468711900939073, 50.39030241451747], [30.46671493495252, 50.3894400804779], [30.46518485543158, 50.38913774518266], [30.463762986275306, 50.38960986816749], [30.46325991665072, 50.38996259764726], [30.462636035324348, 50.38998007388168], [30.462513335234487, 50.38890225065117], [30.461567324068536, 50.387954765468], [30.460707897767893, 50.38787366350143], [30.459500209908793, 50.386937948058964], [30.457684675889148, 50.38694409428954], [30.456520597085923, 50.38462838230759], [30.456627005344753, 50.38441071671788], [30.455909380076417, 50.38349909837436], [30.455194939359924, 50.38311634857981], [30.453881899428495, 50.38283015403768], [30.452574792439155, 50.383127318077115], [30.44853681350641, 50.38514823625244], [30.44715522874302, 50.38445959215197], [30.44664743994611, 50.38444958095329], [30.444381268048264, 50.382771352392794], [30.444818362853194, 50.38195025843543], [30.44411015970398, 50.381019381415655], [30.44356435970397, 50.380709081415645], [30.442015819757632, 50.380370956880085], [30.440554540421378, 50.38084259553539], [30.42838469201792, 50.38997007179577], [30.42744968487116, 50.38972537900312], [30.42647843396481, 50.38969029028956], [30.425540156172048, 50.38982340284155], [30.42444737893455, 50.39021620701733], [30.42071607670924, 50.39236371494136], [30.4200445412123, 50.392932833628436], [30.419741234411248, 50.394104200700525], [30.419904276169834, 50.394527288691194], [30.41788651346392, 50.39495059093318], [30.417280568506506, 50.39493396439471], [30.415420608643046, 50.39553177024523], [30.414974215032686, 50.39669117614765], [30.415645026986212, 50.39723541371293], [30.415126838995846, 50.39770813667551], [30.41548784330266, 50.398773732111685], [30.41718769499507, 50.399342289574946], [30.41912246248292, 50.40034311737169], [30.422881610632448, 50.40302112895172], [30.423556846201883, 50.40366124511761], [30.425339491609677, 50.40648823294214], [30.42555633509789, 50.406980318778345], [30.425505984728883, 50.40774313695065], [30.422322349482606, 50.41158198959962], [30.4209637009279, 50.41264996594068], [30.417628740989635, 50.41617104797481], [30.41225169102346, 50.420297092574295], [30.40528106116973, 50.427206104622535], [30.396729861963934, 50.43856502494787], [30.395660230544898, 50.44024765411576], [30.395408261151427, 50.441588488464]]]}}]}