{"type": "FeatureCollection", "features": [{"type": "Feature", "properties": {"role": "settlement", "name": "Київ — Оболонський район · захід", "osm": ["relation/1754928"]}, "geometry": {"type": "Polygon", "coordinates": [[[30.403818125350167, 50.51822503870204], [30.372355040860935, 50.5158513623735], [30.37111744675192, 50.51562717616517], [30.367694103932493, 50.51457195704824], [30.365760151378094, 50.514234499955045], [30.363581436808676, 50.514178969098225], [30.361444477897294, 50.51443245099601], [30.354091665316332, 50.51665638160177], [30.351279384651836, 50.517874238153546], [30.345740822713328, 50.521225258246936], [30.301631451320024, 50.54667890890232], [30.301423098501157, 50.54695314329947], [30.298729561173644, 50.54853654951655], [30.295862750359348, 50.550718957749105], [30.2954507111906, 50.551973224687785], [30.295910705574933, 50.55451091824555], [30.296446731877992, 50.55532418264686], [30.297650953844077, 50.55575437545343], [30.299013859577236, 50.55561948009469], [30.301413680935983, 50.55478938084474], [30.306655780927375, 50.55606320299106], [30.310649996666005, 50.556570227657026], [30.312004135643285, 50.5564874336659], [30.323977359807902, 50.54933594012046], [30.32388777718531, 50.54996825973057], [30.32423028299106, 50.55083877301022], [30.32534696771142, 50.551381949169716], [30.326749134086615, 50.55136007679787], [30.32879385044541, 50.55086987094828], [30.329458769464612, 50.55123716515007], [30.3284089745589, 50.5517850186473], [30.327626735692412, 50.552893985532705], [30.328033072376282, 50.553716738931335], [30.32888520640598, 50.554104063676604], [30.328739027627975, 50.55457775376532], [30.329001373224784, 50.55479601090632], [30.32864341995762, 50.55540462374201], [30.328974476581845, 50.556597215989314], [30.32944015472713, 50.55674849475941], [30.329707014934662, 50.5574729646526], [30.331007840260455, 50.55804701698099], [30.33018897651677, 50.55831002037584], [30.324200798531198, 50.56187040728686], [30.323532200923385, 50.56274259922327], [30.324232968103438, 50.563922950097655], [30.31941357355327, 50.56557734319355], [30.306383891565446, 50.56924802444847], [30.305206646220235, 50.57008597127624], [30.30542441917887, 50.57120420307296], [30.306887027928692, 50.57183155494278], [30.338860057048187, 50.57518124751665], [30.347835703260092, 50.57521496924038], [30.368528177262206, 50.57494150638118], [30.36868948520172, 50.58651417839903], [30.369333594460155, 50.58746676752604], [30.370841182923016, 50.587849322373074], [30.403818125350167, 50.58755167518629], [30.403818125350167, 50.51822503870204]]]}}]}