{"type": "FeatureCollection", "features": [{"type": "Feature", "properties": {"role": "settlement", "name": "Київ — Деснянський район · центр", "osm": ["relation/1754820"]}, "geometry": {"type": "Polygon", "coordinates": [[[30.72543234899192, 50.4855228107742], [30.65872569795019, 50.46718561744037], [30.658548383772164, 50.46702261423128], [30.658538145037024, 50.466156427683366], [30.658134250690004, 50.46557088685058], [30.657361104068592, 50.46505304521042], [30.656203237257845, 50.464722363049006], [30.65716306490764, 50.464592628459535], [30.658052764241248, 50.46375011608365], [30.659061364241246, 50.46072641608365], [30.658868345523015, 50.45999211771192], [30.659702467658086, 50.45945912495801], [30.660666782523837, 50.459193539847995], [30.66194547574373, 50.45802189165909], [30.66204872231273, 50.45695605767762], [30.661770080191538, 50.45424284456368], [30.66226383257203, 50.45239878398077], [30.66178024170385, 50.449761859456956], [30.660905260304826, 50.448699707613834], [30.659385741068988, 50.447934761887446], [30.65116744106899, 50.446059661887446], [30.649598228345504, 50.446097028623214], [30.648499892449195, 50.44681557615316], [30.647102968045054, 50.44896059049286], [30.646504295148155, 50.448814103238504], [30.646504295148155, 50.535948316938004], [30.650438772155137, 50.535937105608824], [30.652601842944218, 50.535710603869155], [30.653453125636318, 50.537788958945804], [30.653829986036065, 50.539413416848326], [30.655546686036065, 50.54184091684833], [30.65823174827966, 50.544147361863295], [30.66029852084323, 50.547024136788266], [30.660835258745966, 50.54996735318424], [30.6621129443376, 50.55202346590776], [30.663027232745936, 50.55268396873536], [30.66993710068465, 50.555244395617095], [30.671729887778035, 50.555292983734354], [30.672387416385984, 50.555117563042806], [30.674948026905053, 50.555638516635184], [30.680187079431576, 50.557007860138285], [30.696534620982295, 50.56313675364593], [30.69793151525885, 50.56332712188414], [30.699199895176932, 50.56290682014501], [30.699763802280636, 50.56206670318524], [30.700265937153063, 50.55669591126272], [30.700516132261313, 50.55612087256781], [30.711633473914986, 50.556857424587825], [30.708865888576334, 50.571304076757734], [30.707756710229972, 50.571503611486705], [30.706399618153362, 50.57224981375834], [30.70641772539101, 50.573395091340764], [30.707562771189203, 50.57490921970804], [30.711764571189203, 50.57921341970803], [30.71863451412208, 50.58569124392854], [30.71720840742436, 50.58683166930301], [30.71585316900816, 50.58881133305463], [30.715608298813468, 50.58977658211952], [30.716168282060988, 50.59067607799609], [30.716660482060988, 50.59104527799609], [30.718217006206828, 50.59154961281415], [30.718526978315058, 50.591889870769926], [30.72007021289863, 50.59216160884063], [30.723720298627352, 50.591815330794084], [30.72543234899192, 50.59140957244765], [30.72543234899192, 50.4855228107742]]]}}]}