{"type": "FeatureCollection", "features": [{"type": "Feature", "properties": {"role": "settlement", "name": "Київ — Шевченківський район", "osm": ["relation/1755014"]}, "geometry": {"type": "Polygon", "coordinates": [[[30.393571117045475, 50.48609404078524], [30.39386764711167, 50.48703107336228], [30.394626560367122, 50.48776760755158], [30.39593164654218, 50.48804904368352], [30.397230662017435, 50.487756292834206], [30.40490168343143, 50.48356281254814], [30.40629039258919, 50.48301825241594], [30.41366808428749, 50.47884461284124], [30.424613839608927, 50.47829500672797], [30.426972268888733, 50.47798879090483], [30.427293753692442, 50.47970865968413], [30.42810882573895, 50.48108101813937], [30.433696056688934, 50.48692110633637], [30.435493168546834, 50.48755025793729], [30.437820196109833, 50.487240565476284], [30.438968070795028, 50.48771408034261], [30.440556112823035, 50.48811691609296], [30.442192198110956, 50.48789697128599], [30.44296917284462, 50.487249924618936], [30.44379909637612, 50.48612132252794], [30.444641765796664, 50.48583402901758], [30.446218927264205, 50.4860846142502], [30.447372958485836, 50.48574044934081], [30.44830940150918, 50.48519142180143], [30.449956815256925, 50.48534282803059], [30.451556199679477, 50.48575523529402], [30.452865480405936, 50.485802710458145], [30.454020901317545, 50.4853042580663], [30.45541148804414, 50.48523520803119], [30.456438516320183, 50.48461000641507], [30.45864017132249, 50.48172114362188], [30.46396063471574, 50.47786599915139], [30.468788329846298, 50.47927691739211], [30.470196172031095, 50.479442396365684], [30.470008617967874, 50.48025891865374], [30.470378951173046, 50.48107091364968], [30.47123890989088, 50.48177572235086], [30.472616331350483, 50.482452104819075], [30.475928614632206, 50.48327152866036], [30.477572588063513, 50.48280306378357], [30.47809528192807, 50.48183484708199], [30.477494245923957, 50.48101863501491], [30.47771972308812, 50.48077735833851], [30.479000739641634, 50.48065743966685], [30.479482397355838, 50.480434741918835], [30.47996889634279, 50.480610366769746], [30.482121526324708, 50.48028584028176], [30.483467122663452, 50.47957908065203], [30.485571312111063, 50.478794086271954], [30.48647926467306, 50.47785865861229], [30.486055809676387, 50.476912601089964], [30.48813735202197, 50.476043988842655], [30.4888360427997, 50.474950103467556], [30.48958555848609, 50.47541049288503], [30.491276099362295, 50.47536054523239], [30.493053218717257, 50.47469599559471], [30.493762523174073, 50.47419648269874], [30.495054589441587, 50.473879092035645], [30.49609293853989, 50.473350686930985], [30.49691218910643, 50.47223484143714], [30.496645251212314, 50.471236617504864], [30.495946644565347, 50.47019391230656], [30.496523170174537, 50.46938672989456], [30.4967336022708, 50.468251894028455], [30.498153633464003, 50.46868678540944], [30.49985455135099, 50.46863036811797], [30.50106173351083, 50.46953773830189], [30.50232826548609, 50.47006417518021], [30.503819881240286, 50.4699158328022], [30.505264423956742, 50.46932826538443], [30.506062473158188, 50.46880706539054], [30.507805166208723, 50.46818637774206], [30.50932821978901, 50.466883741799116], [30.51160486328208, 50.46561009832303], [30.512301878015748, 50.464642268185194], [30.511693143062825, 50.46365026659458], [30.50911724474545, 50.46197583819458], [30.509995926266853, 50.46152549683593], [30.510661669798907, 50.4608016453025], [30.51250986220922, 50.46073697176915], [30.513813321043806, 50.46015281779714], [30.51487072971649, 50.46046008378069], [30.51593245430698, 50.460398292994896], [30.517380995959467, 50.460776159073504], [30.518372780986727, 50.46081547690747], [30.51949614160667, 50.46057893980424], [30.52011700623012, 50.46014658777247], [30.522140067333083, 50.459699004482786], [30.52256234363248, 50.45944198897731], [30.523699544836326, 50.460041486292845], [30.524458944836322, 50.46019218629284], [30.526603446981188, 50.45984126311087], [30.52924720769132, 50.45781797721505], [30.530163017021888, 50.456425240465165], [30.530161045656783, 50.45587635105988], [30.52966879646019, 50.45465499547233], [30.530307227300263, 50.45222218634627], [30.530295553159352, 50.45154463624777], [30.529437329474643, 50.45066593802028], [30.528219512983565, 50.45048522453233], [30.529070636368353, 50.44967900272925], [30.528606919846816, 50.44858656425302], [30.527681719846814, 50.44787666425303], [30.526127273121606, 50.44739046676641], [30.525018431759317, 50.44768083367086], [30.524340947823333, 50.44766273158797], [30.52305861171625, 50.44385585076369], [30.5239436673723, 50.44331517543849], [30.52431879647209, 50.442723326399], [30.524447197169337, 50.442071748628955], [30.523918135854586, 50.44096929520706], [30.522257004754437, 50.440526072230476], [30.521928482772235, 50.44056073532978], [30.521599610492835, 50.44000383706198], [30.52087528246763, 50.43946995673954], [30.51785644548448, 50.4381376176097], [30.51664615627418, 50.43794853680864], [30.501880012918733, 50.44045954235361], [30.495251673391433, 50.4375413479731], [30.494039766603656, 50.43727092010067], [30.49280685080002, 50.43749900544931], [30.492128346728308, 50.437853910771416], [30.48966283305651, 50.43976447738619], [30.489218186886507, 50.44047219309957], [30.488422576173893, 50.44066718068531], [30.48442358776894, 50.44338490924272], [30.47804891722061, 50.44540250031665], [30.476220773866658, 50.44576112776373], [30.473810419584197, 50.44576860405338], [30.468163231760045, 50.4447494772189], [30.466706530449198, 50.4447994183829], [30.465646151537424, 50.44544164763921], [30.464192286723943, 50.44762922592629], [30.463936258252605, 50.44902369767921], [30.464205235120545, 50.450094209111896], [30.415941202942648, 50.45805677733458], [30.41467930582023, 50.4580410071811], [30.410053077656123, 50.45753859089212], [30.396293594737486, 50.456658347556214], [30.394659163815522, 50.45699771252342], [30.393955756584226, 50.45800253025624], [30.393571117045475, 50.48609404078524]]]}}]}