{"type": "FeatureCollection", "features": [{"type": "Feature", "properties": {"role": "settlement", "name": "Київ — Дніпровський район · схід", "osm": ["relation/1754781"]}, "geometry": {"type": "Polygon", "coordinates": [[[30.608742106528293, 50.42143469444774], [30.608742106528293, 50.476504146444555], [30.60980104995166, 50.47791685198815], [30.610419966924454, 50.47800844932046], [30.614074769090667, 50.47320390591911], [30.624070482767582, 50.469842583296895], [30.62579339090319, 50.468918627736265], [30.62705545287319, 50.46781180026752], [30.629787815631556, 50.46411950182152], [30.635179821792406, 50.456085674972556], [30.635201750118117, 50.4551495767908], [30.633418361300276, 50.45223929211875], [30.636757867246576, 50.4514350077593], [30.642246945105896, 50.45294654543291], [30.643384554621093, 50.45306212565846], [30.644214014307554, 50.452931608296375], [30.645247859596505, 50.452384070184], [30.645862933531593, 50.451573392250616], [30.647426314553147, 50.452003389245], [30.64904296891373, 50.45200326116984], [30.650187929982913, 50.45127155384302], [30.651636304363, 50.44904754951567], [30.65765327428004, 50.45046329812649], [30.657943057866706, 50.45248415529519], [30.6575309635658, 50.45434133864826], [30.657805146754427, 50.456992694978545], [30.654863086948698, 50.45871839074124], [30.65430457084228, 50.459348575363336], [30.654066170842277, 50.45995637536333], [30.65428847201687, 50.46096870078904], [30.654597691210203, 50.461122080298026], [30.65435238978244, 50.4618574738407], [30.653269333131824, 50.46202686458121], [30.65235093362751, 50.463074140823075], [30.651602358694394, 50.463017011543634], [30.649926640096304, 50.463699020902624], [30.649485573540325, 50.464270416203625], [30.649315418217338, 50.4650433309713], [30.64961993883915, 50.46561430551474], [30.651020768279757, 50.46642573730755], [30.654276670349873, 50.467189971105014], [30.654489856166496, 50.468038220136364], [30.655231332410565, 50.46878773742209], [30.65632744234503, 50.469479278663755], [30.73926455705877, 50.49237393473721], [30.74039933982721, 50.49236070919094], [30.7411897922091, 50.49253110841487], [30.742822325282322, 50.49241072769293], [30.74556744119195, 50.493180320479055], [30.746950000000002, 50.49332397485073], [30.74873188994809, 50.49269937375383], [30.749081889948087, 50.49234937375383], [30.75037646967437, 50.489321684371134], [30.752611283682754, 50.490971970747935], [30.75371403488641, 50.491517862623205], [30.75510714679817, 50.49150606887274], [30.756187029417653, 50.49094169934433], [30.757145837386883, 50.48975326262244], [30.757703505599704, 50.4894604274269], [30.7617365055997, 50.48414342742691], [30.761818173339506, 50.483079226317585], [30.760675923446094, 50.482305271001756], [30.76007592344609, 50.48213827100175], [30.7568401201739, 50.48191688997273], [30.755287428339553, 50.48153917460371], [30.75025963020271, 50.48219219918199], [30.748519193030276, 50.47796076677298], [30.751051534823684, 50.475883115785415], [30.751807613162725, 50.474963313951555], [30.7515262265333, 50.47348885104664], [30.74979476155554, 50.47218559415917], [30.743281450240453, 50.46805202524214], [30.74307638211273, 50.467743077262774], [30.713125436522574, 50.448574162200146], [30.710219628624486, 50.44694529350879], [30.70719597469409, 50.445619500820364], [30.69681064620133, 50.44214959135839], [30.69007512188061, 50.44080068482384], [30.674840120320134, 50.43686864784959], [30.66921458959908, 50.43588064308432], [30.619848537570025, 50.423702689101695], [30.609101272486193, 50.42076039084085], [30.608742106528293, 50.42143469444774]]]}}]}