{"type": "FeatureCollection", "features": [{"type": "Feature", "properties": {"role": "settlement", "name": "Київ — Деснянський район · захід", "osm": ["relation/1754820"]}, "geometry": {"type": "Polygon", "coordinates": [[[30.6521560445129, 50.44628522317356], [30.65116744106899, 50.446059661887446], [30.649598228345504, 50.446097028623214], [30.648499892449195, 50.44681557615316], [30.647102968045054, 50.44896059049286], [30.645605280241245, 50.448594126309494], [30.64415309352497, 50.44866315969483], [30.642919564496967, 50.44924811306907], [30.642303087789674, 50.45001407971571], [30.6377089706223, 50.44874111255325], [30.63607223278848, 50.448713160131256], [30.629680918612245, 50.45026597563454], [30.62854514055019, 50.45102840230647], [30.62860379828797, 50.452081349160935], [30.63091946529793, 50.45555011535118], [30.625994192850996, 50.46290465628579], [30.62338209158903, 50.46645928324252], [30.6226965490951, 50.46706668359085], [30.621798268338544, 50.467551583374465], [30.61217537628253, 50.47074742888799], [30.610925993009683, 50.4713838700261], [30.609725686018315, 50.472663487676726], [30.60573413081456, 50.477924782390055], [30.605558560601573, 50.47899093458962], [30.605946749420088, 50.48037637217129], [30.608397936575262, 50.48552853721647], [30.609194044971048, 50.48626302293274], [30.60991367119367, 50.4864018959765], [30.608428386404977, 50.48872347989389], [30.60612032130245, 50.49396337126027], [30.565675095887354, 50.49419241465135], [30.56154424528435, 50.49406282740485], [30.546580713673332, 50.49222958801015], [30.544122591004633, 50.491663156320854], [30.537593996359156, 50.489700246762766], [30.53608831684102, 50.48963170429928], [30.53489327198793, 50.49022213514675], [30.529561274326223, 50.49607044181092], [30.526626164651244, 50.49794565679662], [30.52408966465124, 50.500322956796616], [30.523744672034116, 50.50088317667986], [30.52339517203412, 50.50234577667986], [30.523299888686083, 50.50420457786169], [30.52397566027226, 50.507191915233435], [30.525235569771322, 50.51027492785573], [30.529474925269156, 50.516151580368586], [30.5322097042509, 50.51943321418104], [30.53602963452538, 50.525053874046236], [30.537385096133843, 50.52579926985491], [30.53914889192796, 50.525616292791845], [30.54213189192797, 50.52432149279185], [30.543111854123, 50.52363369293044], [30.548158151142047, 50.52354564920841], [30.55099234890834, 50.523323597448226], [30.554979207447694, 50.5233334647127], [30.556736233848962, 50.52274306807956], [30.558594800641114, 50.52093694344821], [30.559596705761557, 50.52034190960271], [30.56160944652729, 50.517728655578544], [30.564769491198795, 50.51724367914414], [30.564621838661076, 50.51802629774335], [30.564837593988223, 50.518888], [30.565770096501417, 50.52023284054378], [30.56578112348201, 50.52067955997911], [30.563159485964853, 50.52379215314627], [30.56206557097545, 50.52433295055964], [30.561116925007312, 50.52508559482608], [30.560042466221933, 50.52618171718732], [30.558994321112742, 50.526882277124606], [30.5587107610324, 50.52733470509741], [30.557566709243325, 50.52781387104517], [30.55431657405765, 50.52861227857879], [30.552295977899753, 50.52999071358864], [30.55126921047414, 50.53230900043965], [30.551302002898627, 50.5331864241664], [30.550786423585695, 50.53360023942254], [30.550518080602018, 50.534477388076674], [30.551214718565348, 50.537144610109976], [30.551958588013793, 50.53777015958583], [30.55375648874302, 50.53878905750032], [30.555030121375424, 50.540819969231165], [30.55604638705065, 50.541496002682024], [30.557504776344835, 50.54158825051063], [30.56441710435427, 50.54043673448315], [30.57179903352855, 50.539902074867065], [30.572994934378396, 50.53955282457744], [30.573399691974025, 50.53909199008978], [30.594256759201432, 50.53767011455067], [30.6121341051872, 50.536971579209784], [30.627572308015576, 50.5361683548593], [30.650438772155137, 50.535937105608824], [30.6521560445129, 50.53575728478258], [30.6521560445129, 50.44628522317356]]]}}]}