{"type": "FeatureCollection", "features": [{"type": "Feature", "properties": {"role": "settlement", "name": "Київ — Дніпровський район · захід", "osm": ["relation/1754781"]}, "geometry": {"type": "Polygon", "coordinates": [[[30.61438646494972, 50.42220732757056], [30.597752497069386, 50.417653416004825], [30.591002598187345, 50.41597258832522], [30.589275629276482, 50.41603157662538], [30.588193730918913, 50.41689655928956], [30.58600987129907, 50.4227890934933], [30.584791192293558, 50.42453110505539], [30.574529134777265, 50.43181607843313], [30.56838031681356, 50.4352919903473], [30.563593809704706, 50.44050911708986], [30.55991841072227, 50.443975116986785], [30.553972164205145, 50.446803637907834], [30.55043949397082, 50.44873211344359], [30.543155136130387, 50.45177672031966], [30.53383939633771, 50.455128484218164], [30.53118416117241, 50.45672907849758], [30.529692802504123, 50.45814156810606], [30.528647080145486, 50.459443534751216], [30.527696802436452, 50.46117041761389], [30.52703853314316, 50.46335579177669], [30.52684671950615, 50.465657347755595], [30.527069719506155, 50.467379747755594], [30.528221364900492, 50.46936457476061], [30.534700091215257, 50.47463154133926], [30.537334530323253, 50.477139538180396], [30.53943322003397, 50.479513027250235], [30.540271151235537, 50.482662863396214], [30.540047087167, 50.48453234920923], [30.539475215850043, 50.48548254102634], [30.537218160803874, 50.48749305243152], [30.53484317431692, 50.49028023657322], [30.53469026049484, 50.4913552229958], [30.535809531566457, 50.492161639027486], [30.54446184296495, 50.494668178055875], [30.55702934270492, 50.49635770272974], [30.56102215430021, 50.49675629133329], [30.565691774274686, 50.49690645802076], [30.6051221436952, 50.4967056140985], [30.608075232063417, 50.49651712936515], [30.609461994971447, 50.49615454829731], [30.610127327767774, 50.4952943497878], [30.61024634744472, 50.49457874125532], [30.612499665663556, 50.48948007337909], [30.614497592061074, 50.486473573407], [30.614858881328637, 50.485625176329684], [30.61485599218075, 50.48466433082293], [30.613861331428826, 50.48394558522585], [30.61206512549742, 50.483865890259246], [30.60979013132595, 50.47883642094003], [30.614074769090667, 50.47320390591911], [30.61438646494972, 50.47309908995737], [30.61438646494972, 50.42220732757056]]]}}]}