{"type": "FeatureCollection", "features": [{"type": "Feature", "properties": {"role": "settlement", "name": "Київ — Голосіївський район · південний центр", "osm": ["relation/1754513"]}, "geometry": {"type": "Polygon", "coordinates": [[[30.613491870615345, 50.338736247548674], [30.614628999817512, 50.33803429497566], [30.62415862941082, 50.32857885441469], [30.625663482437865, 50.32601606773225], [30.62642822687273, 50.323488432657925], [30.62780495925466, 50.32016602678829], [30.629293694765284, 50.31806952477595], [30.632803714843533, 50.31459336540262], [30.63887250202465, 50.31033423910517], [30.643721302024655, 50.30524303910517], [30.645560885960574, 50.3019078816949], [30.6480752445986, 50.29902247937739], [30.64903434670477, 50.29535089965717], [30.651026957697805, 50.292437081999985], [30.65353736824461, 50.291138494754044], [30.653466146814242, 50.29100856755178], [30.65140574262568, 50.29043184401793], [30.526692734597926, 50.29043184401793], [30.525591662528896, 50.29070066081238], [30.52589023287007, 50.2914982360812], [30.531136756626555, 50.296355151598554], [30.53133027260422, 50.297447720822966], [30.5313416290085, 50.300818353192604], [30.53062428051607, 50.30107722401197], [30.52954698298037, 50.302283090946524], [30.529665203101008, 50.30662914370745], [30.5307667335752, 50.31254125160758], [30.530629300313688, 50.31587191341873], [30.530870788005327, 50.31637273482308], [30.524547296218827, 50.31809250180093], [30.5182120864409, 50.31904426358251], [30.515427960316124, 50.31979630621538], [30.514605014691657, 50.3201999670838], [30.513229088479548, 50.321313448111006], [30.508333041870063, 50.32446913649725], [30.505139199996304, 50.32328084814727], [30.497285914776135, 50.32071764047737], [30.49591064421315, 50.32051862572006], [30.49464715851033, 50.320920498926924], [30.486912889214036, 50.32575412951487], [30.486252326455094, 50.327013957876574], [30.486579626455097, 50.32812695787657], [30.487672670904185, 50.32907639414877], [30.492922273899023, 50.33085142643472], [30.492725767656395, 50.33203027154217], [30.493070042048316, 50.332294303252645], [30.491289560969467, 50.332809296709165], [30.48984561868591, 50.33416076149302], [30.48711832595166, 50.33437068680067], [30.487176315098452, 50.33404501887475], [30.486522439282734, 50.33290049620939], [30.484861130704815, 50.332288482538694], [30.483533739846504, 50.33249247844377], [30.482659268378583, 50.33284793540731], [30.48072578951765, 50.33215110636308], [30.479796381845627, 50.332008746646075], [30.475125881845624, 50.33199184664607], [30.47385631039567, 50.33225897355179], [30.473090410778077, 50.332962547480875], [30.472343258061517, 50.33464224034865], [30.472299969616028, 50.335235475478676], [30.472913495847685, 50.337093515072134], [30.473698461508135, 50.337835078768144], [30.47495713580957, 50.338085045855486], [30.475107331659075, 50.338305611460726], [30.473360798628306, 50.33854114084228], [30.47311564927914, 50.338736247548674], [30.613491870615345, 50.338736247548674]]]}}]}