{"type": "FeatureCollection", "features": [{"type": "Feature", "properties": {"role": "settlement", "name": "Київ — Дарницький район · центр", "osm": ["relation/1754757"]}, "geometry": {"type": "Polygon", "coordinates": [[[30.657680314470532, 50.36436398748792], [30.657680314470532, 50.43595581639842], [30.6677486983975, 50.43842661617385], [30.67339501733303, 50.43941970583293], [30.68860409259361, 50.443345657688965], [30.69518838225809, 50.44465664501122], [30.70383062387221, 50.44750922540924], [30.706084045121614, 50.44837651199771], [30.709172692120447, 50.44990743009142], [30.728117597110028, 50.46201434048536], [30.728939968931204, 50.46073859164596], [30.728939968931204, 50.37719356002832], [30.72793546747478, 50.3758088288135], [30.725637921360597, 50.375411064554285], [30.72510380881454, 50.37564973391985], [30.725400982283897, 50.37635294394401], [30.726296075693362, 50.37700071261154], [30.725652948088225, 50.37771035596514], [30.723982848407683, 50.378959264653076], [30.72257670674374, 50.379448507721584], [30.72137147633891, 50.380209281828165], [30.719611936091475, 50.38086801296648], [30.71834705362537, 50.38111540213549], [30.716905018037966, 50.38009985138277], [30.71610374582289, 50.37973593967807], [30.71605664919625, 50.379432843335046], [30.715679709623647, 50.37918109725987], [30.715632668175715, 50.37841882565233], [30.71436122362664, 50.37771267195836], [30.713817630843113, 50.37760308543989], [30.713886308779884, 50.37700662410138], [30.714880091503947, 50.37594783572406], [30.714512549318552, 50.37513289227725], [30.71507940792959, 50.37440216619051], [30.71501260792959, 50.37385196619051], [30.714364709390033, 50.37293908536012], [30.716568991198844, 50.371374589060785], [30.71701062688472, 50.37072530249293], [30.71721259374526, 50.36951795733142], [30.71697218509611, 50.368643820421966], [30.716103899068685, 50.3675561205559], [30.71512765317768, 50.367086822130624], [30.71470468338821, 50.366611577774705], [30.713164108253313, 50.36633240271764], [30.711994708253307, 50.36641770271764], [30.711218409437944, 50.36666673488456], [30.710058439900386, 50.36578322496269], [30.710645479401137, 50.36519771168894], [30.71047593269278, 50.3640175636815], [30.71177892872879, 50.36320906191536], [30.7156201136745, 50.35837095808282], [30.715878879432516, 50.35732266826542], [30.715823179432512, 50.356171668265425], [30.71513620640947, 50.35429693251426], [30.71380766199672, 50.353353430899915], [30.713506682189944, 50.35211177423575], [30.712417060269193, 50.35112146832216], [30.69773378456061, 50.34604891716379], [30.69574814780551, 50.34605508665231], [30.694646412886758, 50.34711548959774], [30.69444848832057, 50.348390866449314], [30.693462967903663, 50.348331704185284], [30.691991326125798, 50.34879292736163], [30.68790550956644, 50.35019976074743], [30.684483164675957, 50.351599240044834], [30.68236440449916, 50.35184127795263], [30.679543621184322, 50.351904155613965], [30.6782925522135, 50.35170133657324], [30.676727244930508, 50.35183838267237], [30.67595667462608, 50.35246354703021], [30.67477126171231, 50.352698901743636], [30.672464161712313, 50.353960401743635], [30.671753175691823, 50.35475755302255], [30.671996097059964, 50.355662771141446], [30.673506879489054, 50.35737289649588], [30.67283274654875, 50.35835660834551], [30.67115207627152, 50.35762629350157], [30.669650630763115, 50.35740830690457], [30.66831693877452, 50.35790174769373], [30.666953138774524, 50.35899484769373], [30.666611968360144, 50.36029879750224], [30.669412168360147, 50.365340397502244], [30.67034242326086, 50.3661140326267], [30.67023540265371, 50.36638017952796], [30.66887480110701, 50.365722787239406], [30.662707823083988, 50.365090970588774], [30.65813668616401, 50.363537850269715], [30.657680314470532, 50.36436398748792]]]}}]}