{"type": "FeatureCollection", "features": [{"type": "Feature", "properties": {"role": "settlement", "name": "Київ — Святошинський район · центр", "osm": ["relation/1754751"]}, "geometry": {"type": "Polygon", "coordinates": [[[30.396026595766973, 50.488232672165275], [30.39720255382352, 50.48777041509051], [30.39796733708539, 50.48635318270387], [30.397811191420068, 50.4859651708067], [30.39818375545576, 50.459514485117154], [30.409602005215742, 50.460237188782656], [30.414102774803006, 50.46072993293848], [30.415769470405753, 50.46077767360354], [30.417314914546736, 50.46034619506896], [30.417878786316727, 50.45932798795838], [30.41747806367139, 50.45666580110065], [30.416731001877423, 50.455247382255834], [30.415701905662907, 50.45414806932465], [30.414986025710256, 50.453681448334216], [30.239404427090665, 50.453681448334216], [30.23853972241254, 50.453970038634], [30.23970151121869, 50.456013213975346], [30.241255835759972, 50.45739141735422], [30.241520549924275, 50.458093144798035], [30.24663118553324, 50.46326362746013], [30.249052840420784, 50.464551947875194], [30.251285997049013, 50.466994901341025], [30.255145858617148, 50.46924215347266], [30.255678439851245, 50.47009955216021], [30.255818764525753, 50.47081148912727], [30.249005910153254, 50.47250289551282], [30.247491394122576, 50.473386454375564], [30.246971542380518, 50.474494134378006], [30.247645239628763, 50.47750680147486], [30.249059085409748, 50.47933520669548], [30.249420651112306, 50.4806556727244], [30.249117830207695, 50.48202502388323], [30.249675198577517, 50.48529908547876], [30.250601692379412, 50.48695569952306], [30.251127775931106, 50.48744811266162], [30.252142070110626, 50.48790422297829], [30.253600651546137, 50.48819180225548], [30.25580548000813, 50.48791665833726], [30.25746327149866, 50.48793349630516], [30.258129305946646, 50.488232672165275], [30.396026595766973, 50.488232672165275]]]}}]}