{"type": "FeatureCollection", "features": [{"type": "Feature", "properties": {"role": "settlement", "name": "Київ — Голосіївський район · південь", "osm": ["relation/1754513"]}, "geometry": {"type": "Polygon", "coordinates": [[[30.649923662132405, 50.29405044361988], [30.651026957697805, 50.292437081999985], [30.672147372400975, 50.281511896397426], [30.672724722672864, 50.28104499015872], [30.674291122672866, 50.27896069015872], [30.674467142501037, 50.27812724046504], [30.673922142501038, 50.27620374046504], [30.673514609685608, 50.27561624905767], [30.671494488279752, 50.274056869861816], [30.669536888279758, 50.273225069861816], [30.66858399139574, 50.27300692709942], [30.659290097688466, 50.2724064683364], [30.658860508324032, 50.268168527321244], [30.658495708324036, 50.26761992732124], [30.657559228449657, 50.26695982285789], [30.65618733445976, 50.26681703255762], [30.655221734459754, 50.266926732557614], [30.65392488166166, 50.26742822061041], [30.65087492108609, 50.26995921158095], [30.64806392108609, 50.27301751158094], [30.645721046824107, 50.27930107890972], [30.63048203550353, 50.27903442754254], [30.623170119005565, 50.27930943794062], [30.615100528533535, 50.279293719674996], [30.612017846679148, 50.27943897737222], [30.611905462723357, 50.279112308311205], [30.612550298739585, 50.278411510578], [30.613420733342675, 50.276756507943205], [30.613172924177356, 50.27576000484134], [30.613629053462827, 50.275762111135734], [30.614779001447236, 50.27503703165341], [30.616133996684624, 50.273139545832265], [30.61714909598077, 50.272953255364115], [30.617995222336095, 50.272125989156635], [30.61826428180741, 50.27112767061951], [30.6181882058052, 50.26926573942815], [30.618425822822825, 50.267146595580286], [30.619206594331175, 50.26634466495248], [30.61990460094859, 50.26590090648291], [30.621680485810764, 50.26575507269756], [30.626959285810766, 50.264381772697554], [30.62820251631309, 50.26358592909374], [30.62851990679411, 50.262819526876505], [30.628216243299875, 50.26205105140498], [30.627039360325046, 50.260772584534536], [30.627644041207844, 50.25942842952613], [30.62727849895208, 50.25680742748227], [30.62829194986346, 50.25617519065826], [30.628730361673608, 50.25616849166625], [30.630300041940014, 50.25568200363761], [30.63441599507772, 50.251977415671746], [30.63481169559016, 50.25125161002866], [30.634980481111022, 50.24907367196016], [30.635821407268512, 50.247213155892], [30.637160822717554, 50.24609910971988], [30.64462163049747, 50.24216782015344], [30.646863581526357, 50.24073866631437], [30.64746601609716, 50.239911173720024], [30.647099485388246, 50.239010122254406], [30.647506399747176, 50.23763546374987], [30.647252115982294, 50.236693732677494], [30.6460951520267, 50.23609337749055], [30.639790973317186, 50.234617232622], [30.64547879439722, 50.2266441858528], [30.645507216271845, 50.225579653655124], [30.644331751603108, 50.22482960086181], [30.59443885160311, 50.21207280086181], [30.593010756890916, 50.21190393826382], [30.591397581604664, 50.21215530739653], [30.590565862542384, 50.21307873431294], [30.589087161622878, 50.2209176526562], [30.588543852773643, 50.22994080943949], [30.58417938797916, 50.24500759663041], [30.58314656671972, 50.246645521087665], [30.574310647230323, 50.25808287238595], [30.570023190832906, 50.257935656752046], [30.56850193826193, 50.25828006983402], [30.567803024589658, 50.25921446167045], [30.56760894031881, 50.26236876255367], [30.566487018803926, 50.263765210640706], [30.565963469578982, 50.26511591187018], [30.56411459483095, 50.26707797278779], [30.563446185573095, 50.26736154978492], [30.562296869976326, 50.26861011066258], [30.561829863303366, 50.26944413389825], [30.561701366744423, 50.27589811305704], [30.55597623456826, 50.27583893737431], [30.556133230641944, 50.269701037601436], [30.555739449081404, 50.26884669900387], [30.55460625256485, 50.268333556490326], [30.553222256948654, 50.26838286874366], [30.55225131027704, 50.268712428257594], [30.541186424911064, 50.27490269726002], [30.540517237417788, 50.27564614155103], [30.540676515685004, 50.27649894884675], [30.545663353884397, 50.28282773187088], [30.545199166905228, 50.28436938220864], [30.54440960710031, 50.289539348031376], [30.53356581036615, 50.28886198670592], [30.530774279918983, 50.289360842507755], [30.52761768684757, 50.28937998552915], [30.52623235306414, 50.289724307214335], [30.525542728699808, 50.29056994316729], [30.52589023287007, 50.2914982360812], [30.5286471713911, 50.29405044361988], [30.649923662132405, 50.29405044361988]]]}}]}