{"type": "FeatureCollection", "features": [{"type": "Feature", "properties": {"role": "settlement", "name": "Київ — Дарницький район · захід", "osm": ["relation/1754757"]}, "geometry": {"type": "Polygon", "coordinates": [[[30.663317644126405, 50.436647521887046], [30.663317644126405, 50.36515344771891], [30.662707823083988, 50.365090970588774], [30.65895873135625, 50.36385705520395], [30.653000496176, 50.361543437793536], [30.652082440849323, 50.36135224369653], [30.646751307758628, 50.361066218693175], [30.64035537744463, 50.36033608858647], [30.640756306483233, 50.36001635445222], [30.641093167196995, 50.35869640593557], [30.640448131094967, 50.357287534228355], [30.64113616767697, 50.35611410699746], [30.64102886767697, 50.35436170699747], [30.64041990780133, 50.353172946365575], [30.639457697317873, 50.34519140504391], [30.63730548774216, 50.342114070535054], [30.63782889464773, 50.3412723480636], [30.6414218410103, 50.34013338910939], [30.64361629257993, 50.33869830573433], [30.64411082598668, 50.33769058341953], [30.643329563839483, 50.33676064856086], [30.641746119094492, 50.33647224176579], [30.635320819094492, 50.336983741765785], [30.63381844511096, 50.33758116528509], [30.631896757111196, 50.339638961166855], [30.62860237578123, 50.341304179802876], [30.627826934402872, 50.34253015848284], [30.62762220399128, 50.34370440979504], [30.626580026822282, 50.3440157022807], [30.625415464634735, 50.34493149293976], [30.62477762573619, 50.34720357242201], [30.623042221875437, 50.34737062806118], [30.617600563014648, 50.34647060449903], [30.61613227938799, 50.34658634307926], [30.615794138683583, 50.346827078541345], [30.614184732715906, 50.34605952080582], [30.615353231105626, 50.344985022795726], [30.616825547210446, 50.343138062602314], [30.618339376542483, 50.3397515873383], [30.616371623763417, 50.337519445976554], [30.61432782376342, 50.33628604597655], [30.612874411451482, 50.33591772955762], [30.611423943186363, 50.336290797297416], [30.60565844318636, 50.33980589729742], [30.600345306765995, 50.346449121129304], [30.59705118310536, 50.34890048995366], [30.591365108348487, 50.351639905457525], [30.590732627982412, 50.35213221736291], [30.58810002798241, 50.35561051736291], [30.58486555795451, 50.36063794261926], [30.58214855795451, 50.36949184261926], [30.581158555426175, 50.37444433350603], [30.581769457013444, 50.38059701693355], [30.584749157013444, 50.38803811693355], [30.591457735432037, 50.39541638255881], [30.593610782073316, 50.400426171938406], [30.593967576882203, 50.40862245159653], [30.592405306047763, 50.41100329614631], [30.58918317664701, 50.41517640467964], [30.588257532800053, 50.41677102741276], [30.588316656057017, 50.417799387495705], [30.589482973185863, 50.418505415272264], [30.596136259676843, 50.420161567043806], [30.618254264019377, 50.42621662283501], [30.66284595991155, 50.43722347520922], [30.663317644126405, 50.436647521887046]]]}}]}