{"type": "FeatureCollection", "features": [{"type": "Feature", "properties": {"role": "settlement", "name": "Київ — Голосіївський район · північний центр", "osm": ["relation/1754513"]}, "geometry": {"type": "Polygon", "coordinates": [[[30.585411112841413, 50.37611091967666], [30.58538807310738, 50.374412951619114], [30.586306471237858, 50.3699751024288], [30.588969280000978, 50.361297795653776], [30.59192552214443, 50.35676301791677], [30.594308790076735, 50.353614145756566], [30.599768752022978, 50.35098366602396], [30.603715823843668, 50.34809426561259], [30.60883602790884, 50.341610310373866], [30.614628999817512, 50.33803429497566], [30.61721310882392, 50.335470303492684], [30.61574503548455, 50.33511764794672], [30.472858495177498, 50.33511764794672], [30.472315980318598, 50.33528396324947], [30.472913495847685, 50.337093515072134], [30.473698461508135, 50.337835078768144], [30.47495713580957, 50.338085045855486], [30.475107331659075, 50.338305611460726], [30.473360798628306, 50.33854114084228], [30.472588122442243, 50.3391560896736], [30.47213742244224, 50.339873389673606], [30.47234191420782, 50.34163842447811], [30.471274306981687, 50.3423179155883], [30.471501653456187, 50.34350512723345], [30.471735257452604, 50.343734876496235], [30.470936042030495, 50.348348063574164], [30.470786587335976, 50.350461632560446], [30.46740852035411, 50.35129844559709], [30.46632334678422, 50.35189844715725], [30.46608304959732, 50.35280551633825], [30.46646594959732, 50.35417991633825], [30.468012011549945, 50.355832285155024], [30.467736338641437, 50.35684582055576], [30.46614404545262, 50.35733979296555], [30.465004455936853, 50.3582573076651], [30.46523093476644, 50.35890533131941], [30.460263229307373, 50.359519762495175], [30.45829202609803, 50.35962366350106], [30.456701311038117, 50.3589616344709], [30.45491313304355, 50.35482253535011], [30.453821884567443, 50.35383533190727], [30.45168521000198, 50.35329893986629], [30.441379315168962, 50.35474393760872], [30.43673121951664, 50.3556997676675], [30.435704133336756, 50.35625021662947], [30.43539762802888, 50.35708693832887], [30.435665697837003, 50.359295598806824], [30.434552666607644, 50.359791910885356], [30.433663438051667, 50.360714575223405], [30.43367261569699, 50.36126339494177], [30.43542206333608, 50.36660793155636], [30.435299411747344, 50.366838780382366], [30.430660051092946, 50.36956155106296], [30.428699040976074, 50.37095940464229], [30.428161508248927, 50.371831671618835], [30.428632777936375, 50.372719631852085], [30.432828591608445, 50.37611091967666], [30.585411112841413, 50.37611091967666]]]}}]}