{"type": "FeatureCollection", "features": [{"type": "Feature", "properties": {"role": "settlement", "name": "Київ — Деснянський район · схід", "osm": ["relation/1754820"]}, "geometry": {"type": "Polygon", "coordinates": [[[30.719780599627175, 50.484745997524264], [30.719780599627175, 50.59192099760239], [30.72007021289863, 50.59216160884063], [30.723720298627352, 50.591815330794084], [30.753835581640065, 50.584677966327135], [30.75944117206723, 50.58511645918487], [30.762290901587438, 50.58499582438561], [30.76615438816228, 50.585258394205276], [30.76750079262979, 50.58505994850627], [30.768370097505315, 50.5843723955947], [30.77234015762533, 50.577203695419314], [30.780347601066133, 50.57842180321468], [30.780481728770724, 50.579486945686426], [30.78184872877072, 50.58060394568642], [30.782288809856933, 50.58092273809854], [30.784022539577116, 50.58137031569197], [30.78563526604706, 50.580765070586736], [30.788175475411435, 50.57844344690948], [30.790320598907144, 50.57779470668595], [30.792671366179693, 50.57494610354251], [30.794051902822392, 50.574314694600375], [30.797604575616482, 50.57170150357335], [30.798499512834333, 50.57124879893073], [30.813033013464995, 50.56735667977914], [30.814204225527394, 50.56657118132358], [30.814152337705327, 50.56602850532649], [30.815181441167134, 50.565428988636725], [30.816222148060294, 50.565307139548956], [30.817366198025752, 50.56491445306645], [30.817938071714565, 50.56416834212231], [30.81811637171456, 50.56338644212231], [30.817757230315653, 50.56241382478308], [30.816288581275614, 50.56184001852119], [30.816504201556015, 50.56093554697461], [30.817094278470773, 50.560506409211186], [30.817058125249908, 50.55951857677319], [30.816818525475572, 50.55915172997533], [30.818796257904047, 50.55895632942982], [30.819651679937813, 50.558046255128396], [30.822929544982518, 50.54272382615553], [30.823437436001687, 50.53934561039083], [30.825058295982068, 50.53793141788938], [30.82540502943174, 50.536797706810795], [30.824262041056272, 50.535903818514804], [30.820464363691528, 50.53474402801788], [30.817658530186137, 50.533702261627205], [30.808866162451075, 50.532295267730966], [30.803781758389267, 50.52992610902066], [30.79933583986489, 50.52872277993609], [30.795656416147388, 50.52838746649133], [30.793209113928825, 50.52761374084159], [30.783986587530975, 50.525697620883676], [30.773375934382738, 50.52214484914127], [30.77207159396911, 50.52143213325234], [30.765794627087864, 50.5196900361019], [30.7629732325725, 50.51930610260176], [30.761570992540296, 50.51866346829038], [30.760134164677886, 50.51828434216771], [30.755681634175726, 50.517699657551546], [30.756713689834996, 50.51670847190551], [30.76268131155114, 50.51327901997697], [30.763242381784607, 50.5126597768267], [30.763859117363584, 50.51095325937887], [30.763515021737696, 50.510178506382154], [30.763906532610633, 50.50950848976666], [30.763882673879312, 50.508518523052345], [30.76281477527968, 50.50780244048993], [30.76071077527968, 50.50717634048993], [30.759449941841613, 50.50714802211651], [30.75859577436661, 50.506600924498336], [30.755218519078852, 50.505631714145665], [30.75179482416265, 50.50407384795334], [30.752851219000807, 50.50226397354007], [30.752310874073423, 50.50142403763126], [30.75106406017463, 50.5009905408657], [30.7483561357618, 50.50076504639606], [30.746563358250587, 50.5007819252491], [30.742316091492754, 50.49894166267648], [30.741880726352022, 50.49841485539029], [30.741110148605348, 50.49792005218485], [30.74200984332306, 50.49514812424848], [30.7438905929903, 50.49236500650185], [30.743867611030602, 50.491285458025324], [30.742621109917184, 50.4905583415553], [30.74173826360203, 50.49036487606205], [30.740993516972875, 50.48989633531736], [30.72014226811531, 50.484068604420386], [30.719780599627175, 50.484745997524264]]]}}]}