{"type": "FeatureCollection", "features": [{"type": "Feature", "properties": {"role": "settlement", "name": "Київ — Голосіївський район · північ", "osm": ["relation/1754513"]}, "geometry": {"type": "Polygon", "coordinates": [[[30.585411112841413, 50.37249232007471], [30.430658666901444, 50.37249232007471], [30.428910728345283, 50.37293667939301], [30.431737470896092, 50.375144042648486], [30.43696206999183, 50.37977372732948], [30.44010466696927, 50.38171986164807], [30.439427333732095, 50.383034364417135], [30.440256129600144, 50.38398029533143], [30.442178150716856, 50.385198005844266], [30.44405547929781, 50.386725507064035], [30.445252830542437, 50.387211934632106], [30.445731457298916, 50.38718370413178], [30.44696752222326, 50.387970523123414], [30.448406584825193, 50.38839562614946], [30.449900537791216, 50.38805771640307], [30.452947247131586, 50.3863063765033], [30.453777577381732, 50.388009077103995], [30.454781848979906, 50.38925680124543], [30.455921302996895, 50.38992217271749], [30.457495408871328, 50.38990423955838], [30.45843818026657, 50.39052065373695], [30.458546576600103, 50.39148822168765], [30.459250607515802, 50.39241402679026], [30.460763411957732, 50.39275491733665], [30.464460481837133, 50.39263008344706], [30.465584745838825, 50.392301214426965], [30.46741076359106, 50.39289108830235], [30.469017493904243, 50.393170301839184], [30.46836930203195, 50.39560664040103], [30.46843697187901, 50.396637945707994], [30.46976448762749, 50.39778577963241], [30.47040507179709, 50.39795131035482], [30.469562024625354, 50.398882077138694], [30.470151915299514, 50.399955342936735], [30.471507418845036, 50.40037227392924], [30.472669170840707, 50.40035432164006], [30.474370316780313, 50.399793031464995], [30.47908699839093, 50.399554678202186], [30.48044186668999, 50.3990362841316], [30.48333599301195, 50.39975077089612], [30.4845393273189, 50.40029719748517], [30.486813329118217, 50.40195603916493], [30.488112470678427, 50.40439483131907], [30.488873009578462, 50.40735997948565], [30.4901365370783, 50.40922850004106], [30.49102184961414, 50.410047760467286], [30.49265137968955, 50.41084156797919], [30.49642125480988, 50.41186840582996], [30.498708946488204, 50.41206649537973], [30.501376214170598, 50.41201609900192], [30.499946530481914, 50.41278912467548], [30.497103971748466, 50.414991777820404], [30.496467551109532, 50.41585006187664], [30.496410671537497, 50.41677916857118], [30.496643780209624, 50.417337185776425], [30.497274330295557, 50.41815017548273], [30.50101840846529, 50.42173356802232], [30.50151846627673, 50.42248959008646], [30.502514311554634, 50.42330072610154], [30.504109907087972, 50.423425921715044], [30.50495832474391, 50.42320092474104], [30.505790718519066, 50.423467079692045], [30.508090241489175, 50.42372264815973], [30.50953049983244, 50.4233409081745], [30.509152721059273, 50.424216596849575], [30.50766939363311, 50.42617941137057], [30.50756310857197, 50.428301298018255], [30.504182444794186, 50.4315307146357], [30.500728244779786, 50.43268475354845], [30.4998188017165, 50.43283931730865], [30.498605701716503, 50.433503317308656], [30.49240979329312, 50.43772233888358], [30.491882138271748, 50.43876224261022], [30.492719278055343, 50.43971453107996], [30.500367445765136, 50.4430755122948], [30.502105203288483, 50.44323027006169], [30.51650756347772, 50.44084879321598], [30.51792607361855, 50.440113015196694], [30.51831871692705, 50.43931198710461], [30.51813304370044, 50.435814025340605], [30.518202383166276, 50.428342405012145], [30.528838491513465, 50.411429915823305], [30.52895685865348, 50.41051062929791], [30.528133650825264, 50.40975509276175], [30.525893336714095, 50.408712368132406], [30.5270265439216, 50.4081106355341], [30.52853084367248, 50.407599501305285], [30.533598737280087, 50.40655003215721], [30.54255286812602, 50.40633171216236], [30.544460601029776, 50.40615661584076], [30.55522410614179, 50.40402982066857], [30.557547101996192, 50.403910125407805], [30.559427939530863, 50.404093693123436], [30.56151428362701, 50.40478673823433], [30.56554312078371, 50.40762106234199], [30.56617266597667, 50.40817490600364], [30.56834722610463, 50.41134069012788], [30.569944432363986, 50.41270542273639], [30.571838968905503, 50.41382025026138], [30.574552224378444, 50.41478669766552], [30.589482367110158, 50.418504990653624], [30.591112501892663, 50.41847508971931], [30.59222302269482, 50.41770737570885], [30.593018946743992, 50.416316461752196], [30.59621910962096, 50.412171802941536], [30.598030054534785, 50.40941859873048], [30.5981959375837, 50.4088799937145], [30.598137537583703, 50.404334193714504], [30.59774548751484, 50.39984854336611], [30.595456887514842, 50.39452334336612], [30.588765168729477, 50.38717298413967], [30.585911907425032, 50.38004763504664], [30.58538807310738, 50.374412951619114], [30.585764237062946, 50.372595266183765], [30.585411112841413, 50.37249232007471]]]}}]}