{"type": "FeatureCollection", "features": [{"type": "Feature", "properties": {"role": "settlement", "name": "Київ — Оболонський район · центр", "osm": ["relation/1754928"]}, "geometry": {"type": "Polygon", "coordinates": [[[30.3981642976969, 50.518011767227165], [30.39818087794093, 50.58760255652061], [30.44718989484268, 50.587160205140094], [30.461797305065396, 50.58542141511707], [30.463379954521574, 50.5856910315283], [30.46464646846102, 50.585279454948875], [30.46522282667711, 50.58444855429773], [30.465940163369826, 50.57657298304795], [30.466503368682886, 50.573201460866315], [30.472243325147225, 50.57347538628107], [30.4725740116083, 50.57335625992172], [30.4725740116083, 50.487950887354835], [30.47226635422646, 50.48754738653218], [30.465105177907184, 50.48869436803222], [30.46314275984442, 50.48996647654812], [30.45907041908034, 50.49350741893604], [30.454320591538423, 50.49620618547117], [30.45000244815661, 50.49961500536402], [30.4496180000473, 50.50036916682884], [30.44874056448991, 50.50589000352632], [30.44724416686612, 50.5201149795946], [30.44675044149713, 50.520485353524016], [30.446557054518248, 50.52090950175803], [30.44507749568989, 50.52508932831385], [30.43656719722095, 50.52435134548363], [30.435239274531764, 50.52412539585907], [30.433236783389287, 50.52332151360451], [30.430889149974153, 50.52167986723956], [30.42950771761995, 50.52095797027763], [30.427970790404515, 50.52039215003564], [30.425530047083804, 50.51986305593724], [30.398306397968327, 50.51780921625399], [30.3981642976969, 50.518011767227165]]]}}]}