{"type": "FeatureCollection", "features": [{"type": "Feature", "properties": {"role": "settlement", "name": "Київ — Оболонський район · схід", "osm": ["relation/1754928"]}, "geometry": {"type": "Polygon", "coordinates": [[[30.466920183955036, 50.573221352358004], [30.472243325147225, 50.57347538628107], [30.48155667165549, 50.573621290365956], [30.483376522392184, 50.57306160672564], [30.486722968759967, 50.57008434380404], [30.488652915648473, 50.57001465647081], [30.491515831475933, 50.56874623807609], [30.4919050333273, 50.568334966673916], [30.494122063762187, 50.568138100352044], [30.495342866786718, 50.567745152963425], [30.495935515617315, 50.566957096564146], [30.49721730967243, 50.56018094004179], [30.498317035634713, 50.557386230322734], [30.50015356990179, 50.55529579073562], [30.503528209884465, 50.55259676333569], [30.509376815505608, 50.54976409366734], [30.51379010845061, 50.548008060752906], [30.51879738080924, 50.54645289727083], [30.52506378080924, 50.54395309727083], [30.52835791683566, 50.54216856841229], [30.532531493838864, 50.54167081182847], [30.533768673055, 50.54120796478282], [30.535939133737312, 50.539341878882226], [30.537710134472263, 50.538620386999014], [30.53990423447226, 50.537420286999016], [30.542984468174833, 50.535392402682014], [30.54550540774336, 50.53271764538848], [30.546593275699905, 50.5295906715366], [30.546508932524095, 50.52706873203874], [30.54494898215073, 50.52434731994591], [30.542606669041852, 50.52235743565397], [30.541266297995197, 50.52185723358074], [30.53975257105787, 50.52207523726411], [30.53887272065489, 50.52245714484098], [30.536066142943906, 50.51830437707158], [30.533287428801586, 50.51496398214715], [30.52917538525238, 50.50926547257796], [30.528112453729495, 50.5065933756402], [30.52752442577751, 50.50394487464435], [30.527862594847107, 50.501598712539604], [30.530008911909754, 50.49958710617137], [30.533098944488206, 50.49757819391792], [30.540871877612926, 50.48886981789044], [30.543328778662136, 50.48662436915114], [30.544244962450378, 50.484948456721504], [30.544382662450374, 50.4838683567215], [30.543844004386084, 50.48284922501643], [30.54231561815664, 50.482401346211624], [30.531548779880538, 50.4822905505617], [30.52756632850528, 50.48172946931807], [30.52604028844483, 50.48133457031512], [30.516840783071267, 50.48147531369907], [30.50727792530653, 50.48221926829596], [30.502174491893587, 50.48213122430959], [30.501305152336514, 50.48188896713795], [30.50056476614033, 50.48133365021404], [30.500348595609267, 50.480927087688514], [30.500274673990624, 50.47884947396236], [30.498468913545082, 50.476616859023395], [30.496997154950183, 50.47589574546128], [30.495790445537335, 50.475794684138755], [30.494781156592317, 50.475918174814254], [30.49349909937989, 50.47644670464012], [30.48691785113503, 50.480519623679825], [30.479981547054066, 50.48631167007332], [30.466920183955036, 50.48840366462449], [30.466920183955036, 50.573221352358004]]]}}]}