{"type": "FeatureCollection", "features": [{"type": "Feature", "properties": {"role": "settlement", "name": "Київ — Дарницький район · схід", "osm": ["relation/1754757"]}, "geometry": {"type": "Polygon", "coordinates": [[[30.72330263927533, 50.45893729876426], [30.740093610815638, 50.46966771878893], [30.7423072085226, 50.470441909866466], [30.74315631223671, 50.470357623920066], [30.746570964310347, 50.47083817892627], [30.752216409498395, 50.47121813224942], [30.75390648177043, 50.47076408943287], [30.75515388177043, 50.46999128943286], [30.75579946543529, 50.46903899131371], [30.755206957856977, 50.468072581574035], [30.75451278736039, 50.46761086341921], [30.75538352038153, 50.4665387465464], [30.754905562973896, 50.465622338089545], [30.7533659191747, 50.46441787538711], [30.756190051963753, 50.462546674052426], [30.756771911608237, 50.46143860445532], [30.755795373148576, 50.46045149292935], [30.75255657314858, 50.45914929292936], [30.74681674909371, 50.45785760878166], [30.755068022658964, 50.45307283435447], [30.760333523722526, 50.44981413806405], [30.762261068632633, 50.44903192948061], [30.768720914800685, 50.44700818688825], [30.777718002247784, 50.44456380960923], [30.778847571138876, 50.44381573360286], [30.778253027759938, 50.43977649569381], [30.778382717322913, 50.43955966216669], [30.78176562642603, 50.43805325792481], [30.78228810258016, 50.43797524595472], [30.78468360258016, 50.436956845954725], [30.789805576021838, 50.4346315786703], [30.790997156395125, 50.43514283828456], [30.7924111647042, 50.43519456861693], [30.79346417494568, 50.43484218783014], [30.797422541295873, 50.43176477361988], [30.798236334841587, 50.43061926339171], [30.802886510666298, 50.42786050483074], [30.803638684560045, 50.42703933287968], [30.80336460304489, 50.42610312441887], [30.802531681413946, 50.425220010142105], [30.803438443148277, 50.4245096098183], [30.804266664782123, 50.4228684237296], [30.803599688556584, 50.422021311898924], [30.802877094848032, 50.42159304513733], [30.8031654834925, 50.42095712052356], [30.803113980116457, 50.420506965110796], [30.802612182987485, 50.41985366926716], [30.7986906368625, 50.417468663043856], [30.799517241875737, 50.41655887431882], [30.80161628279252, 50.41577388559389], [30.806042446632496, 50.41253595788473], [30.808146785494234, 50.41140917930662], [30.809235012343375, 50.41198772172619], [30.811036494174683, 50.412051039545304], [30.811841329281602, 50.41182074446111], [30.813234829633323, 50.41100156216997], [30.814660032529616, 50.41050603869917], [30.817732617097253, 50.41014590380564], [30.82059950426275, 50.409586698468566], [30.821339219650696, 50.409625911029444], [30.823103733985516, 50.409160705906174], [30.82704177489805, 50.40619195721191], [30.828339624249192, 50.40453837818419], [30.82803484038627, 50.40323608306493], [30.82430492377084, 50.40099608124092], [30.824415443128867, 50.4003462984153], [30.82347687170603, 50.39745996480324], [30.820519904243334, 50.39368504866165], [30.8176851600523, 50.392050477723416], [30.814151269350216, 50.39070081858698], [30.812793025972642, 50.39052814961102], [30.801963628704986, 50.391656306904366], [30.79648531984519, 50.392829286814624], [30.795721431180787, 50.39312272532254], [30.789953496676322, 50.39634963366105], [30.77744714032697, 50.39386864542099], [30.777454211186207, 50.391654585520584], [30.777875355079363, 50.3901611379527], [30.778610262938148, 50.38906267447742], [30.782196716905506, 50.38631498105539], [30.78268879877254, 50.385494607082045], [30.782294313073436, 50.38465278463169], [30.77911579389579, 50.38180777794975], [30.777977125944354, 50.381293555225234], [30.767887928478192, 50.37997766351818], [30.76609751671426, 50.37958266995521], [30.765484054601924, 50.376677654374966], [30.764052053921358, 50.374496393116594], [30.763118214991994, 50.37385794150724], [30.761771283667716, 50.373718607962985], [30.75300658605553, 50.37419763106592], [30.743237092557212, 50.37078221055015], [30.742154925175313, 50.37060980285678], [30.74022720244264, 50.370678049792424], [30.73815400649228, 50.37104326050232], [30.730521006492282, 50.37284326050231], [30.726056091688022, 50.37423276277351], [30.72490889406295, 50.375188501605], [30.725400982283897, 50.37635294394401], [30.726296075693362, 50.37700071261154], [30.725652948088225, 50.37771035596514], [30.723982848407683, 50.378959264653076], [30.72330263927533, 50.3791959318479], [30.72330263927533, 50.45893729876426]]]}}]}