{"type": "FeatureCollection", "features": [{"type": "Feature", "properties": {"role": "settlement", "name": "Київ — Подільський район", "osm": ["relation/1754975"]}, "geometry": {"type": "Polygon", "coordinates": [[[30.36253730557442, 50.517054632871954], [30.36422318601313, 50.5168722524103], [30.36543578106423, 50.51695491251077], [30.369925536531767, 50.518246178600435], [30.371762979149082, 50.518539602484466], [30.424716243812064, 50.52252712929492], [30.42714982332397, 50.52321347238389], [30.431014601886023, 50.52566500320236], [30.433863940434367, 50.52669334447927], [30.43592680489535, 50.52703466059613], [30.446388226448494, 50.527974637572036], [30.447924052952782, 50.52775446418388], [30.448798859551932, 50.5269163259718], [30.450636694917208, 50.521647372562335], [30.45115255870849, 50.52121673569195], [30.451439797456125, 50.52058105618545], [30.45295815562294, 50.50616286856833], [30.453812618929277, 50.50086680073848], [30.457404412392183, 50.49806820399564], [30.460807860160195, 50.496260366366045], [30.462242020730617, 50.49530780164639], [30.466430226861885, 50.491679691669646], [30.467355224379645, 50.491066948096105], [30.480337357641424, 50.489130229681], [30.482373332127484, 50.48855453903632], [30.48365600060344, 50.48777126597215], [30.490011324680744, 50.48237663094521], [30.495600392782595, 50.478920132290085], [30.49614376562135, 50.47950955302543], [30.496219564908255, 50.48156145203131], [30.49704375542556, 50.48287330400518], [30.498956954382336, 50.484154968631984], [30.50141632154453, 50.48480204145444], [30.507455261325244, 50.484930961721304], [30.517145992065675, 50.48418222575757], [30.524689430412586, 50.48405954081849], [30.526041390013575, 50.48440512181906], [30.5276054762213, 50.48446688567793], [30.531557374154545, 50.485017266603194], [30.54222347048373, 50.485114654405386], [30.543695192509, 50.48476157131088], [30.544382109789865, 50.483856049649745], [30.544513409789868, 50.48269494964975], [30.543300389883637, 50.47838177021373], [30.540892998897316, 50.475667302603135], [30.538163598897317, 50.47306890260314], [30.53202949762112, 50.46816087143177], [30.53126333914271, 50.46694942817919], [30.531078975016552, 50.46552544265948], [30.531227048383396, 50.46376551860743], [30.53175149923356, 50.46195986262021], [30.532488590919957, 50.46058954216686], [30.534309576788118, 50.45856665353442], [30.536190309438943, 50.45739211953169], [30.53936042919707, 50.4562149050431], [30.54038994074423, 50.45525449907897], [30.53987751350143, 50.45413663731814], [30.536236113501428, 50.45152643731815], [30.535120470330952, 50.451095388557846], [30.533834161130663, 50.45100089787212], [30.530037153832254, 50.45219588111486], [30.529492293121184, 50.45246802304769], [30.528849783600847, 50.45321018974814], [30.527689022965106, 50.453164031704105], [30.52613218921871, 50.45351478103989], [30.525440749206247, 50.454474760868834], [30.525494753235975, 50.45537287548873], [30.525864333670068, 50.45616340668069], [30.525164858117122, 50.45680314304259], [30.52368983976013, 50.45597501249295], [30.522064492946573, 50.45613510269067], [30.520153163812076, 50.4571637914408], [30.51939786653522, 50.45728611625697], [30.51820372063334, 50.456940614104084], [30.5166175802252, 50.457103385530694], [30.51616421120045, 50.45601900474542], [30.5157708199712, 50.45573528953187], [30.51437876625006, 50.45528517459367], [30.51288300259176, 50.45556745757794], [30.5117916669965, 50.45610444931456], [30.511410965520035, 50.45653667696113], [30.510979150402814, 50.45650906177928], [30.509333922552578, 50.45591492051478], [30.507113319850927, 50.45649210943686], [30.506215561427137, 50.45746561359699], [30.50641854462113, 50.45826647403238], [30.50709665555152, 50.458977600200974], [30.506711466849943, 50.45971355497511], [30.505376409284704, 50.460155344397876], [30.50401037603848, 50.4609725106763], [30.503782472318335, 50.46153381571998], [30.503830999771182, 50.462160565083735], [30.50435117669256, 50.46286857492788], [30.50710297749997, 50.464532195728175], [30.50477265306451, 50.46619417840058], [30.503374878904477, 50.46668738162788], [30.502855230106306, 50.4653731642644], [30.501891793072545, 50.46460645141255], [30.500372817854633, 50.46445865213746], [30.49904211785464, 50.46464965213746], [30.49776324292806, 50.46523438804473], [30.497673229801304, 50.46503070762647], [30.496013110485045, 50.46440898288238], [30.493924683513224, 50.46453166318197], [30.491601225348553, 50.46556652070271], [30.49133817530199, 50.46646031547551], [30.491455475301994, 50.4669400154755], [30.491793381216564, 50.467640341339845], [30.49248841378982, 50.46814664055191], [30.49239083628024, 50.468672826447445], [30.491570563384176, 50.46938585320262], [30.491285834718738, 50.46996567222308], [30.4912367019387, 50.47063307722635], [30.49165387438025, 50.47153683919056], [30.490367613086864, 50.47224823092626], [30.489040904315463, 50.471871597290665], [30.48682598283071, 50.471553991858215], [30.485531899646734, 50.47189888520768], [30.484391366730044, 50.472445128641546], [30.484048457104716, 50.47333056975768], [30.484211629529106, 50.47446140940461], [30.482703188867106, 50.47501803738489], [30.481648610793346, 50.476088845475616], [30.481596428315438, 50.47708198441813], [30.480378135765033, 50.47760884342205], [30.480113214690736, 50.477509218156726], [30.47868518206242, 50.47766339974602], [30.47709115705963, 50.47812001724863], [30.47588782290221, 50.47807148775425], [30.474571964530764, 50.478863507600735], [30.474090664333723, 50.47818903404175], [30.47286840571675, 50.47723642183129], [30.471527974069364, 50.47680328356445], [30.470231466963412, 50.47671583772598], [30.464292421625803, 50.47498012178438], [30.462972974767307, 50.47488736984125], [30.4618264470885, 50.475315870883854], [30.455307847088502, 50.480039170883856], [30.453293276101594, 50.482585479734986], [30.452218383591635, 50.48271389187232], [30.451817794386216, 50.482902072407356], [30.450678991065693, 50.482584185845226], [30.449604795449606, 50.48250634776142], [30.447932757927408, 50.48188947825956], [30.446391996332174, 50.48222873545898], [30.44532912167902, 50.48300279462941], [30.443674979561557, 50.48281923013182], [30.442511274187822, 50.483311291020414], [30.441872802682894, 50.48328474431223], [30.440726755810065, 50.48375986226337], [30.439950812850803, 50.484889706911815], [30.439221668302675, 50.48461190816391], [30.43818445657, 50.48446478388211], [30.436467184928556, 50.48465531057481], [30.431677909596587, 50.479566688740576], [30.431205185059156, 50.47820937322392], [30.431448145495242, 50.47612676541232], [30.42999418973205, 50.4753433766158], [30.427138321562797, 50.47521327452503], [30.424171085027872, 50.475595386386445], [30.413351657640973, 50.47607938776582], [30.411544817826666, 50.47649550435006], [30.407094017741453, 50.47882722782982], [30.403594428732326, 50.480923116907846], [30.402198089430755, 50.48147088307998], [30.394368673131346, 50.48574244574131], [30.36868454228315, 50.49579561605206], [30.364521321241536, 50.497262726803726], [30.36367173999931, 50.49770586477604], [30.36299735772727, 50.498618748878755], [30.359881406338005, 50.51562455621812], [30.360628560439544, 50.516782292168045], [30.36253730557442, 50.517054632871954]]]}}]}