{"type": "FeatureCollection", "features": [{"type": "Feature", "properties": {"role": "settlement", "name": "Київ — Святошинський район · північ", "osm": ["relation/1754751"]}, "geometry": {"type": "Polygon", "coordinates": [[[30.250303978005405, 50.48461407256332], [30.24959853443461, 50.48484874932832], [30.249675198577517, 50.48529908547876], [30.250601692379412, 50.48695569952306], [30.251127775931106, 50.48744811266162], [30.252142070110626, 50.48790422297829], [30.253600651546137, 50.48819180225548], [30.25580548000813, 50.48791665833726], [30.25746327149866, 50.48793349630516], [30.259285481532153, 50.48875201440993], [30.260693739542763, 50.48908268089308], [30.26078566754688, 50.48940665139189], [30.26131696407434, 50.489675910402276], [30.26388304806252, 50.492691007852635], [30.263480675055067, 50.49308311624255], [30.263137192831806, 50.49392037393903], [30.26365345008118, 50.49472035972201], [30.264998748676124, 50.49579543560614], [30.268084491174, 50.49878245963971], [30.268346689560417, 50.50157057283729], [30.267714278423494, 50.5022239067625], [30.26240489042721, 50.50537817822357], [30.260489890427205, 50.50708607822357], [30.25941018153902, 50.50859889880841], [30.25871127118866, 50.5090284092177], [30.258193622006168, 50.51048343456391], [30.25907454882011, 50.511992480494044], [30.26126313827924, 50.51424075291183], [30.262152445767786, 50.51559463922907], [30.264170443349002, 50.51685897069799], [30.26536407383747, 50.51835424036393], [30.267134971391478, 50.51944929521602], [30.268906074465306, 50.52022073647184], [30.270307143516426, 50.52064119347006], [30.271184855858994, 50.52171027679819], [30.27337991587419, 50.52266720431479], [30.274952212797245, 50.52288753141475], [30.278080500289427, 50.52293846026289], [30.279739802024217, 50.52358034336041], [30.28076614716932, 50.523616786677586], [30.282154712666507, 50.52423618423021], [30.284789480740294, 50.526183086130146], [30.28683493988627, 50.52661228011867], [30.28855725644915, 50.52771203066415], [30.28815377554548, 50.528666929818534], [30.28821662341382, 50.5294786189222], [30.290787968787804, 50.533290218385076], [30.29251068886305, 50.5340905955494], [30.298725624431384, 50.53448123771877], [30.29955595463424, 50.53512463018725], [30.30065150637088, 50.535159662065034], [30.30225220167703, 50.54351082665422], [30.299869205356107, 50.546593085515816], [30.299738867406525, 50.54758661923692], [30.300703005645413, 50.54836905723283], [30.302986562855516, 50.549048509563114], [30.304449387088823, 50.548705736717636], [30.348581870755577, 50.52323881039453], [30.354063901795634, 50.51992211901498], [30.356062300407, 50.5190597882785], [30.36272289873562, 50.51701690376998], [30.364100376887343, 50.515862500251664], [30.367164084432787, 50.49943577616787], [30.371004420090898, 50.498068633293194], [30.39720255382352, 50.48777041509051], [30.39796733708539, 50.48635318270387], [30.397830221951832, 50.48461407256332], [30.250303978005405, 50.48461407256332]]]}}]}