{"type": "FeatureCollection", "features": [{"type": "Feature", "properties": {"role": "settlement", "name": "Вишневе і Крюківщина", "osm": ["relation/2614178", "relation/2613594"]}, "geometry": {"type": "Polygon", "coordinates": [[[30.338527007532583, 50.37678872147853], [30.333554571105132, 50.380983272514406], [30.32931507450509, 50.38513971703964], [30.328984958922305, 50.38612202758588], [30.329797588487338, 50.38698081506777], [30.342897914616685, 50.39310971815337], [30.344528607335707, 50.39333736365565], [30.345907920497737, 50.39273412211947], [30.348136912614418, 50.39065148867401], [30.349289405449685, 50.39125302745349], [30.35061302554077, 50.39392552865601], [30.351204460829134, 50.39449989566755], [30.35368986082914, 50.39592829566755], [30.355632876565114, 50.39623002802534], [30.359948465673597, 50.3955060130766], [30.361243920522572, 50.39487197298893], [30.361358835797446, 50.39429972015671], [30.362881266359278, 50.39581955000972], [30.362340845448873, 50.396050530420844], [30.361448103299068, 50.396888046060035], [30.361709712358756, 50.39788900494493], [30.36312227148507, 50.39936998490392], [30.363421535459672, 50.40055140014157], [30.36460494346824, 50.40110021818589], [30.366316852542603, 50.40151859164511], [30.367836634625398, 50.40161645822045], [30.369165698772328, 50.40092502939041], [30.369785153884493, 50.40117066595035], [30.371194426895265, 50.401049422738794], [30.372135046132936, 50.40049615627423], [30.373006001364196, 50.399633483019045], [30.37692292338157, 50.39818801468617], [30.377102867078776, 50.3979812909885], [30.385349724487572, 50.39520134190111], [30.386406713045968, 50.39445236360975], [30.3868417039807, 50.39345794038938], [30.390848627628753, 50.39249139383626], [30.401049060336906, 50.39517032480085], [30.40452965980826, 50.39643327097528], [30.40963160033088, 50.39745915704855], [30.41523515472527, 50.39935013497395], [30.416773712002204, 50.39945810254617], [30.418293376482488, 50.39913813068047], [30.419633502094957, 50.398616636282824], [30.420651462284628, 50.39801146465455], [30.421031585543627, 50.397235034639245], [30.421926905053457, 50.39732436622691], [30.42355130649827, 50.39708858649981], [30.424299506498272, 50.39674018649981], [30.425131348930375, 50.39590697782419], [30.424860787762693, 50.39493258553749], [30.424126521660785, 50.394181825610254], [30.423144778674782, 50.392422204110716], [30.42078021658804, 50.39051594662225], [30.419309032619882, 50.39001251805039], [30.417727409496415, 50.39035072633456], [30.41610224503665, 50.39134444596802], [30.415275753597403, 50.39160273718277], [30.414394124155862, 50.3914170379448], [30.413129844457313, 50.39169116863023], [30.411042770704707, 50.39285175496843], [30.40195041800389, 50.38995641879244], [30.404139796345813, 50.388689637796716], [30.404961782306543, 50.38802837379957], [30.405013936118678, 50.38718290295326], [30.404586480864584, 50.38621902948655], [30.405646703658824, 50.38624929920718], [30.40637164062454, 50.38651774988336], [30.40789744805234, 50.386279668079666], [30.408546548052342, 50.38598266807967], [30.409404956336758, 50.38509959445252], [30.40918184542332, 50.38448560314627], [30.41294170461493, 50.38291354289823], [30.41658964980062, 50.38114710116813], [30.41981719944059, 50.37948146385818], [30.42735023470856, 50.375185210967295], [30.428100226610034, 50.3741124261373], [30.427263953005472, 50.37306628189809], [30.422120824215263, 50.37060885966087], [30.417895575825725, 50.36880242200807], [30.41668149075244, 50.36854167682221], [30.394330955687558, 50.3684457161962], [30.394942697449792, 50.368092256496745], [30.395152450987844, 50.3673559609874], [30.395184619968656, 50.36469260289803], [30.395563672093797, 50.36375286131472], [30.395537261126233, 50.36282148965078], [30.39521037438737, 50.36196721273379], [30.394136400156285, 50.36142119202288], [30.39189308696159, 50.361059742506285], [30.389768886961594, 50.36105284250629], [30.388714804250867, 50.36122981581051], [30.387291571560155, 50.361704343805606], [30.385721542343862, 50.36139010095892], [30.38293789637955, 50.35983692168097], [30.381157488801087, 50.359485045106815], [30.38095667746199, 50.359011682434485], [30.38109152194443, 50.3586361948227], [30.380450454076474, 50.35778105366426], [30.379644529025487, 50.35734094235461], [30.37808934866074, 50.35702283150836], [30.377463195131323, 50.3566898053366], [30.375833642730917, 50.35644804688799], [30.374771595935076, 50.35649861083803], [30.37428094248017, 50.3562876561969], [30.374325237223555, 50.355927267216316], [30.3729819599748, 50.35512295886945], [30.3721206599748, 50.35495135886945], [30.371156021395336, 50.355082082166525], [30.370751360760497, 50.35365578616689], [30.369373309108905, 50.35251732070407], [30.364928809108907, 50.351475920704075], [30.362814970517416, 50.351728486126945], [30.3606231162128, 50.352897838806186], [30.35945468204969, 50.35327816747346], [30.358721777922174, 50.353889791576314], [30.35731047493304, 50.3557855982115], [30.35707717493304, 50.3565573982115], [30.35743392101461, 50.35760642943567], [30.357807044854795, 50.357905178785145], [30.350996939472825, 50.36246119386925], [30.333461139351563, 50.3720765725078], [30.332775135628733, 50.37285995835816], [30.333103836759214, 50.3738665488046], [30.33697999408607, 50.37621886587455], [30.338527007532583, 50.37678872147853]]]}}]}