{"type": "FeatureCollection", "features": [{"type": "Feature", "properties": {"role": "settlement", "name": "Вишгород", "osm": ["relation/421865"]}, "geometry": {"type": "Polygon", "coordinates": [[[30.37430309623969, 50.610014652042054], [30.372220866301685, 50.61173692555993], [30.371803720156997, 50.61277719383074], [30.372699980776332, 50.61368550398685], [30.374348317715505, 50.6138929789267], [30.38793581232378, 50.61203937460511], [30.388356990155906, 50.61214438899977], [30.39045979015591, 50.611926488999785], [30.39600158593961, 50.610955310714104], [30.415278816506724, 50.606527140594686], [30.420286880757647, 50.6052000364673], [30.429316423791352, 50.60180019387823], [30.430290116535037, 50.600992719854055], [30.430365201517848, 50.60015533845474], [30.431178298132313, 50.59969058200002], [30.431375856450863, 50.59924886407859], [30.432377099183917, 50.59902831784965], [30.43773224438098, 50.59685962383544], [30.439219520299666, 50.59686504218335], [30.440072420299668, 50.596667542183354], [30.44171996737219, 50.596073776325824], [30.442968439017218, 50.59542217019717], [30.445965826842976, 50.59439649940055], [30.447509978673427, 50.59417185406454], [30.45052917244568, 50.60220832075625], [30.45136469590103, 50.60337709842421], [30.452435229441466, 50.60380527552902], [30.468623712089023, 50.60839372201164], [30.47013620467394, 50.608706743866556], [30.471726817243287, 50.60826309687165], [30.47212801957182, 50.607629701168506], [30.47998752027869, 50.61025180672781], [30.481073536387836, 50.611591841035015], [30.48238234967394, 50.6122585535607], [30.483752504446976, 50.61213734924814], [30.484880815496002, 50.61288177155989], [30.483590455521817, 50.613415042194596], [30.482773676636267, 50.61404797216154], [30.482676872390968, 50.61486612269839], [30.486358714939907, 50.62470860793011], [30.48700081451613, 50.62539976930417], [30.48814201926974, 50.62573742694009], [30.52626605125456, 50.62904710395956], [30.52667693053096, 50.6288311238366], [30.527404666216064, 50.628931368333376], [30.528698095641197, 50.628485398441434], [30.5313036965374, 50.62654097279085], [30.53401420638961, 50.623132301958655], [30.535353069585305, 50.62105543458117], [30.535764733008943, 50.61862047367922], [30.535481659102597, 50.61683846234631], [30.536339147070294, 50.614824160120875], [30.536910732894242, 50.611727798651295], [30.537615884297143, 50.609845181369145], [30.540722668867055, 50.59706485854664], [30.54095245000243, 50.59495211793662], [30.540765581230094, 50.59359366606373], [30.539933960192233, 50.591462292263884], [30.538974782681322, 50.59003057005738], [30.53698172787369, 50.58818036647235], [30.535386303405236, 50.58704492300413], [30.53327885203523, 50.58588141962805], [30.531586107038656, 50.585231127167916], [30.526250646807725, 50.584115009083376], [30.525333619743606, 50.58409666393772], [30.521828336243527, 50.58453298564344], [30.515549002138343, 50.58593164407683], [30.51427674938183, 50.586740822075676], [30.514303107878884, 50.58693862914695], [30.506895193191767, 50.58861321904927], [30.499917167856058, 50.57732495560419], [30.499165923434386, 50.576657960786065], [30.49565286337564, 50.57463421759554], [30.494297323267702, 50.5735450272932], [30.492544471213787, 50.5699189418898], [30.492748389501035, 50.567142027560365], [30.491923713722056, 50.56600356981782], [30.48999139781102, 50.56578385913333], [30.48856749335026, 50.56675106802756], [30.48730578131811, 50.5673100587058], [30.485096648745714, 50.56655070721281], [30.483674260576432, 50.566415796962616], [30.48244368761959, 50.56689133521763], [30.481358824321493, 50.56837860157135], [30.48213834681378, 50.56952614427083], [30.48061260234044, 50.57087511283278], [30.472090960262772, 50.5707546009753], [30.4647754897247, 50.5703944308231], [30.46325447316916, 50.570704425452924], [30.462501513437594, 50.57160429334587], [30.461706502383578, 50.57638927600556], [30.46116702391626, 50.58273543081554], [30.447041342276037, 50.58444743377771], [30.377009603405504, 50.585075878338], [30.375539509622644, 50.58547376671311], [30.374918877453297, 50.58641398680314], [30.37430309623969, 50.610014652042054]]]}}]}